{
"type": "FeatureCollection",
"name": "3ra modf Marina",
"crs": { "type": "name", "properties": { "name": "urn:ogc:def:crs:OGC:1.3:CRS84" } },
"features": [
{ "type": "Feature", "properties": { "Name": "Poligono C0ADEC", "description": null, "timestamp": null, "begin": null, "end": null, "altitudeMode": null, "tessellate": 1, "extrude": 0, "visibility": -1, "drawOrder": null, "icon": null }, "geometry": { "type": "Polygon", "coordinates": [ [ [ -109.574542169835993, 23.5994235440957, 0.0 ], [ -109.574340030955, 23.599761182973499, 0.0 ], [ -109.574433782121005, 23.5997954560466, 0.0 ], [ -109.575869032925993, 23.5972487190629, 0.0 ], [ -109.576216873587001, 23.5966260708379, 0.0 ], [ -109.576242880970995, 23.596579516329399, 0.0 ], [ -109.576123931924002, 23.596563835927999, 0.0 ], [ -109.576141452089999, 23.596585724809401, 0.0 ], [ -109.574542169835993, 23.5994235440957, 0.0 ] ] ] } },
{ "type": "Feature", "properties": { "Name": "Poligono C08F3D", "description": null, "timestamp": null, "begin": null, "end": null, "altitudeMode": null, "tessellate": 1, "extrude": 0, "visibility": -1, "drawOrder": null, "icon": null }, "geometry": { "type": "Polygon", "coordinates": [ [ [ -109.584341582370001, 23.608420988491901, 0.0 ], [ -109.584437832990005, 23.608247656548109, 0.0 ], [ -109.584397085231004, 23.60819861661, 0.0 ], [ -109.584352091623998, 23.608145337704901, 0.0 ], [ -109.584302887651006, 23.608088042238499, 0.0 ], [ -109.584251767058007, 23.608036890986, 0.0 ], [ -109.584207826218005, 23.607982030366308, 0.0 ], [ -109.584164236129993, 23.607928487366099, 0.0 ], [ -109.584120571533006, 23.6078790124701, 0.0 ], [ -109.584083407088997, 23.607826572271801, 0.0 ], [ -109.584047478656004, 23.607776760356408, 0.0 ], [ -109.584010143140006, 23.607733056357699, 0.0 ], [ -109.583981673894996, 23.607695481179999, 0.0 ], [ -109.583935022998006, 23.607626435690101, 0.0 ], [ -109.583875685646007, 23.6075670058128, 0.0 ], [ -109.583844412491999, 23.6075423914867, 0.0 ], [ -109.583800303464997, 23.607489709091301, 0.0 ], [ -109.583743570286998, 23.607443447848699, 0.0 ], [ -109.583708459356998, 23.6074158529931, 0.0 ], [ -109.583635419662997, 23.607342491209501, 0.0 ], [ -109.583552658239995, 23.607251208898901, 0.0 ], [ -109.583508708731003, 23.607187713856799, 0.0 ], [ -109.583501572138999, 23.607170343945899, 0.0 ], [ -109.583491964475002, 23.607121358412002, 0.0 ], [ -109.583485645560003, 23.6070985512162, 0.0 ], [ -109.583581269788993, 23.6070012616849, 0.0 ], [ -109.583475930746999, 23.606841701121098, 0.0 ], [ -109.583413558331998, 23.606797121344599, 0.0 ], [ -109.583370578819, 23.606754687861699, 0.0 ], [ -109.583329307241996, 23.606721561500201, 0.0 ], [ -109.583274207198997, 23.606662611538699, 0.0 ], [ -109.583235360681002, 23.6066015851416, 0.0 ], [ -109.583196104693002, 23.6065483665034, 0.0 ], [ -109.583172412004004, 23.606503578157799, 0.0 ], [ -109.58312214947, 23.6064398214133, 0.0 ], [ -109.583094489581995, 23.6063984944835, 0.0 ], [ -109.583052254189994, 23.6063242077125, 0.0 ], [ -109.582999838858001, 23.606265692934301, 0.0 ], [ -109.582954496474997, 23.606205936868498, 0.0 ], [ -109.582922355625996, 23.606157899361101, 0.0 ], [ -109.582857161657003, 23.606072877270002, 0.0 ], [ -109.582802966461998, 23.606024245898102, 0.0 ], [ -109.582775308348005, 23.605990857724301, 0.0 ], [ -109.582733277798994, 23.605926127733799, 0.0 ], [ -109.582667948273993, 23.6058613781791, 0.0 ], [ -109.582644108840995, 23.605833692145399, 0.0 ], [ -109.582595022248, 23.605739523329099, 0.0 ], [ -109.582547950885996, 23.6056450336919, 0.0 ], [ -109.582456668711004, 23.605577856783199, 0.0 ], [ -109.582426086965, 23.605549809784801, 0.0 ], [ -109.582381230799996, 23.6054924814114, 0.0 ], [ -109.582336237952006, 23.605443061572998, 0.0 ], [ -109.582290685008005, 23.6053845647556, 0.0 ], [ -109.582249313877, 23.6053319566258, 0.0 ], [ -109.582190846413994, 23.605254181434798, 0.0 ], [ -109.582119584729995, 23.605191471178099, 0.0 ], [ -109.582076103765004, 23.6051493716427, 0.0 ], [ -109.582050822211002, 23.6051257548149, 0.0 ], [ -109.582029591311993, 23.605094454837701, 0.0 ], [ -109.581977687229994, 23.605044938295901, 0.0 ], [ -109.581935665637999, 23.604988913435399, 0.0 ], [ -109.581884548199994, 23.604927972950001, 0.0 ], [ -109.581818621067995, 23.604876004268501, 0.0 ], [ -109.581769699244006, 23.6048210660365, 0.0 ], [ -109.581698491175999, 23.604774292745908, 0.0 ], [ -109.581672126659001, 23.604754744580301, 0.0 ], [ -109.581636306698996, 23.604708712682001, 0.0 ], [ -109.581575114190997, 23.604646135093301, 0.0 ], [ -109.581511979525999, 23.604592540534501, 0.0 ], [ -109.581468839783, 23.6045517783697, 0.0 ], [ -109.581415828538994, 23.6044994843853, 0.0 ], [ -109.581357849426993, 23.604443799122802, 0.0 ], [ -109.581313079698006, 23.604403016273402, 0.0 ], [ -109.581273027131999, 23.604365060682799, 0.0 ], [ -109.581240033765994, 23.604342932623201, 0.0 ], [ -109.581219900826, 23.604317684459801, 0.0 ], [ -109.581151605429994, 23.604260414084401, 0.0 ], [ -109.581110125476997, 23.604221089279701, 0.0 ], [ -109.581062505901997, 23.604177942988599, 0.0 ], [ -109.58102922194, 23.6041529423849, 0.0 ], [ -109.581000204676997, 23.6041131704254, 0.0 ], [ -109.580930859825003, 23.6040584460969, 0.0 ], [ -109.580880535052998, 23.604019727658301, 0.0 ], [ -109.580840835348994, 23.6039856062336, 0.0 ], [ -109.580798588072, 23.603952082630801, 0.0 ], [ -109.580759734099004, 23.6039112738003, 0.0 ], [ -109.580715118420002, 23.603874285798, 0.0 ], [ -109.580678735237996, 23.603828747701801, 0.0 ], [ -109.580626892897996, 23.603784900521699, 0.0 ], [ -109.580580270168994, 23.603741543133399, 0.0 ], [ -109.580539934290996, 23.6037007818042, 0.0 ], [ -109.580490554627005, 23.603648916803401, 0.0 ], [ -109.580432174829994, 23.6035943312691, 0.0 ], [ -109.580387990096, 23.6035604896752, 0.0 ], [ -109.580352594903999, 23.603515821204802, 0.0 ], [ -109.580306274205995, 23.603452959056501, 0.0 ], [ -109.580256057436998, 23.6033867681911, 0.0 ], [ -109.580206217351005, 23.603329179825199, 0.0 ], [ -109.580157773978002, 23.6032832338053, 0.0 ], [ -109.580123499593, 23.603248248073701, 0.0 ], [ -109.580074708504, 23.6031973547754, 0.0 ], [ -109.580028112250005, 23.603158744331601, 0.0 ], [ -109.579969013299007, 23.603097791311001, 0.0 ], [ -109.579944011373996, 23.603085986581402, 0.0 ], [ -109.579881575358996, 23.603016544801498, 0.0 ], [ -109.579817113459995, 23.602971222797599, 0.0 ], [ -109.579766213851002, 23.602931373293199, 0.0 ], [ -109.579694732617995, 23.6028821342274, 0.0 ], [ -109.579648123191006, 23.602859163124101, 0.0 ], [ -109.579608674697994, 23.602829533978198, 0.0 ], [ -109.579549898612996, 23.602786311337301, 0.0 ], [ -109.579481581330995, 23.602738822696601, 0.0 ], [ -109.579446484581993, 23.602718236538699, 0.0 ], [ -109.57940757723, 23.602685182816401, 0.0 ], [ -109.579369411268004, 23.602658180345198, 0.0 ], [ -109.579341518080994, 23.6026295751691, 0.0 ], [ -109.579310717797995, 23.6025961501296, 0.0 ], [ -109.579085947777997, 23.602414469604199, 0.0 ], [ -109.578799696011004, 23.602183092513499, 0.0 ], [ -109.578687311631995, 23.6020922519475, 0.0 ], [ -109.578288677448, 23.601770033348, 0.0 ], [ -109.578063193643004, 23.601564441468799, 0.0 ], [ -109.577856508151996, 23.601403688879799, 0.0 ], [ -109.577626005417002, 23.601257888086302, 0.0 ], [ -109.577384220005996, 23.6011252212305, 0.0 ], [ -109.577188109676001, 23.601015540488799, 0.0 ], [ -109.576951747018001, 23.600915244497301, 0.0 ], [ -109.576725033173005, 23.600844617921499, 0.0 ], [ -109.576605993418994, 23.600761284291, 0.0 ], [ -109.57646593522, 23.600674514090109, 0.0 ], [ -109.576271031792004, 23.6005758846544, 0.0 ], [ -109.576129613242003, 23.6004597768951, 0.0 ], [ -109.575861326956002, 23.6003343486835, 0.0 ], [ -109.575593528046994, 23.600252020418498, 0.0 ], [ -109.575359189864002, 23.600159662777902, 0.0 ], [ -109.575181236912002, 23.600079900470799, 0.0 ], [ -109.574991164563002, 23.599984748349598, 0.0 ], [ -109.574757472122997, 23.5999143038676, 0.0 ], [ -109.574579052112995, 23.599848562964901, 0.0 ], [ -109.574349859308995, 23.5997647759764, 0.0 ], [ -109.574259062728004, 23.599925882837901, 0.0 ], [ -109.574506538853001, 23.600016353790998, 0.0 ], [ -109.574690558542997, 23.600084157980898, 0.0 ], [ -109.574913284442005, 23.600151296741299, 0.0 ], [ -109.575091555650999, 23.600240541119302, 0.0 ], [ -109.575277748984007, 23.600323996976901, 0.0 ], [ -109.575523868215996, 23.600420997813298, 0.0 ], [ -109.575785571645, 23.600501452221, 0.0 ], [ -109.576018246635002, 23.6006102316314, 0.0 ], [ -109.576157238099995, 23.600724346762998, 0.0 ], [ -109.576363891975006, 23.600828922505102, 0.0 ], [ -109.576491950581001, 23.6009082586502, 0.0 ], [ -109.576631959375007, 23.6010062716745, 0.0 ], [ -109.576879178642002, 23.601083286226501, 0.0 ], [ -109.577095984748993, 23.601175283807201, 0.0 ], [ -109.577283244751001, 23.601280014776801, 0.0 ], [ -109.577520308340993, 23.601410090862998, 0.0 ], [ -109.577737556502001, 23.601547507781, 0.0 ], [ -109.577930862021006, 23.60169785403, 0.0 ], [ -109.578168783734, 23.601914786733001, 0.0 ], [ -109.578332886919995, 23.6020021395152, 0.0 ], [ -109.579090250489003, 23.602614317880199, 0.0 ], [ -109.579113276970006, 23.602648710402399, 0.0 ], [ -109.579153888693995, 23.602704983062601, 0.0 ], [ -109.579193903912, 23.602748408380499, 0.0 ], [ -109.579235718386997, 23.602791290241701, 0.0 ], [ -109.579281224989003, 23.602823486256298, 0.0 ], [ -109.579326497503004, 23.602861947528599, 0.0 ], [ -109.579369774580002, 23.602887331914701, 0.0 ], [ -109.579429741620999, 23.602929016172599, 0.0 ], [ -109.579485638191002, 23.602970121313501, 0.0 ], [ -109.579538988178001, 23.603010191679701, 0.0 ], [ -109.579589249468995, 23.603034962595402, 0.0 ], [ -109.579643977447006, 23.603072661389501, 0.0 ], [ -109.579694141345996, 23.6031119349338, 0.0 ], [ -109.579744921932999, 23.603147637886099, 0.0 ], [ -109.579785284281996, 23.603192529236001, 0.0 ], [ -109.579802273439, 23.603221998804699, 0.0 ], [ -109.579847173586998, 23.603243198565, 0.0 ], [ -109.579889102129002, 23.603286442539499, 0.0 ], [ -109.579935288423997, 23.603324713324898, 0.0 ], [ -109.579977318388998, 23.603368554241399, 0.0 ], [ -109.580014705579998, 23.6034067174288, 0.0 ], [ -109.580058970387995, 23.6034487003481, 0.0 ], [ -109.580098975579006, 23.603494924922401, 0.0 ], [ -109.580144883284007, 23.6035554360978, 0.0 ], [ -109.580192336742002, 23.603619835634198, 0.0 ], [ -109.580244034342002, 23.603685077716801, 0.0 ], [ -109.580299417546001, 23.603727496393098, 0.0 ], [ -109.580346977953994, 23.603771965766501, 0.0 ], [ -109.580438192545003, 23.603866007311201, 0.0 ], [ -109.580490946598999, 23.603915066654199, 0.0 ], [ -109.580532191377003, 23.603949950674298, 0.0 ], [ -109.580569158418996, 23.603996219604898, 0.0 ], [ -109.580620046164, 23.604038407423701, 0.0 ], [ -109.580660309692007, 23.604080696773401, 0.0 ], [ -109.580710002177, 23.6041201282566, 0.0 ], [ -109.580750794379, 23.604155188702101, 0.0 ], [ -109.580804309756999, 23.6041963619376, 0.0 ], [ -109.580852449847001, 23.604234352311298, 0.0 ], [ -109.580882822632006, 23.604275982248112, 0.0 ], [ -109.580931604490004, 23.604312623836901, 0.0 ], [ -109.580971134275998, 23.604348440311501, 0.0 ], [ -109.581015254370996, 23.604390268129901, 0.0 ], [ -109.581073538026999, 23.6044391430285, 0.0 ], [ -109.581100109738998, 23.604472465919802, 0.0 ], [ -109.581144175812, 23.604502020276101, 0.0 ], [ -109.581173919235994, 23.604530206493699, 0.0 ], [ -109.581218221881002, 23.604570563897099, 0.0 ], [ -109.581273500709003, 23.604623655766702, 0.0 ], [ -109.581327057574001, 23.604676488048899, 0.0 ], [ -109.581375331556998, 23.6047221015377, 0.0 ], [ -109.581435619312998, 23.604773279429899, 0.0 ], [ -109.581483397835001, 23.604822139468599, 0.0 ], [ -109.581528433387007, 23.604880014318798, 0.0 ], [ -109.581580079085995, 23.604918307438499, 0.0 ], [ -109.581634720066006, 23.604954198607899, 0.0 ], [ -109.581678080706993, 23.605002891794701, 0.0 ], [ -109.581741818579005, 23.605053134795099, 0.0 ], [ -109.581777406672998, 23.605095561778601, 0.0 ], [ -109.581825578744997, 23.605159786803998, 0.0 ], [ -109.581874314011003, 23.605206280355699, 0.0 ], [ -109.581896097056003, 23.605238394395698, 0.0 ], [ -109.581935343875998, 23.6052750569573, 0.0 ], [ -109.581980842058996, 23.6053191096691, 0.0 ], [ -109.582041081208999, 23.605372120162301, 0.0 ], [ -109.582089390305995, 23.6054363824875, 0.0 ], [ -109.582131716096995, 23.605490204663699, 0.0 ], [ -109.582181324882001, 23.605553909889402, 0.0 ], [ -109.582226460033993, 23.6056034861043, 0.0 ], [ -109.582276478137999, 23.605667411781099, 0.0 ], [ -109.582325999532003, 23.605712828677898, 0.0 ], [ -109.582389258259994, 23.605759382464999, 0.0 ], [ -109.582418593683002, 23.605818269654701, 0.0 ], [ -109.582449019975002, 23.6058732293464, 0.0 ], [ -109.582474652092998, 23.605927458909999, 0.0 ], [ -109.582519186221006, 23.605979178902899, 0.0 ], [ -109.582575689281001, 23.606035180427298, 0.0 ], [ -109.582612805094001, 23.6060923414841, 0.0 ], [ -109.582655914860993, 23.606144382577501, 0.0 ], [ -109.582707504761004, 23.6061906761797, 0.0 ], [ -109.582758746539994, 23.606257502761299, 0.0 ], [ -109.582790633388996, 23.6063051607311, 0.0 ], [ -109.582843703798005, 23.606375101566201, 0.0 ], [ -109.582888114238003, 23.606424680019099, 0.0 ], [ -109.582924067354, 23.606487917193299, 0.0 ], [ -109.582959224210001, 23.606540445523098, 0.0 ], [ -109.583003756473005, 23.606596933665301, 0.0 ], [ -109.583026097643, 23.606639167218201, 0.0 ], [ -109.583069603561995, 23.6066981475227, 0.0 ], [ -109.583113993533999, 23.6067678826081, 0.0 ], [ -109.583190030300997, 23.606849285410998, 0.0 ], [ -109.583234210553002, 23.606884746438698, 0.0 ], [ -109.583281009610005, 23.6069309509856, 0.0 ], [ -109.583327263960001, 23.6069640106473, 0.0 ], [ -109.583337784687998, 23.6069799467897, 0.0 ], [ -109.583320682568001, 23.606997346703402, 0.0 ], [ -109.583279969486995, 23.6070341100341, 0.0 ], [ -109.583283322249997, 23.607072305046, 0.0 ], [ -109.583286675012999, 23.6071105000578, 0.0 ], [ -109.583300335762004, 23.6071598067937, 0.0 ], [ -109.583311903137997, 23.607218784535899, 0.0 ], [ -109.583332178587995, 23.6072681335759, 0.0 ], [ -109.583362845050004, 23.607313576772398, 0.0 ], [ -109.583394112394004, 23.607357824342799, 0.0 ], [ -109.583444490507006, 23.607414808231699, 0.0 ], [ -109.583488960406996, 23.607462553806801, 0.0 ], [ -109.583527686530005, 23.607501261252299, 0.0 ], [ -109.583571963902997, 23.607545952618, 0.0 ], [ -109.583615025043002, 23.607579795842501, 0.0 ], [ -109.583656489118994, 23.6076136064219, 0.0 ], [ -109.583701656944996, 23.607667553478599, 0.0 ], [ -109.583739431012006, 23.6076972845444, 0.0 ], [ -109.583778350353001, 23.607736264620399, 0.0 ], [ -109.583818018157999, 23.607794974914601, 0.0 ], [ -109.583852660795998, 23.607840698131898, 0.0 ], [ -109.583888606857002, 23.607882775734598, 0.0 ], [ -109.583919739159995, 23.6079259382728, 0.0 ], [ -109.583962061918001, 23.607985657117698, 0.0 ], [ -109.584009757437997, 23.6080396993977, 0.0 ], [ -109.584050585613994, 23.608089849936299, 0.0 ], [ -109.584100389048999, 23.608152030162501, 0.0 ], [ -109.584153746455996, 23.608205419640001, 0.0 ], [ -109.584197903016999, 23.60825683773, 0.0 ], [ -109.584241934261001, 23.6083089771343, 0.0 ], [ -109.584288510760004, 23.608365032041998, 0.0 ], [ -109.584341582370001, 23.608420988491901, 0.0 ], [ -109.584341582370001, 23.608420988491901, 0.0 ] ] ] } },
{ "type": "Feature", "properties": { "Name": "Poligono C11F59", "description": null, "timestamp": null, "begin": null, "end": null, "altitudeMode": null, "tessellate": 1, "extrude": 0, "visibility": -1, "drawOrder": null, "icon": null }, "geometry": { "type": "Polygon", "coordinates": [ [ [ -109.586662677684004, 23.599188269964401, 0.0 ], [ -109.586667212096998, 23.599273562719208, 0.0 ], [ -109.586430113776004, 23.599373796441, 0.0 ], [ -109.586348644631997, 23.5993815618097, 0.0 ], [ -109.586183185230993, 23.599440291232501, 0.0 ], [ -109.586086414807994, 23.599426495896498, 0.0 ], [ -109.585805253996995, 23.599573576918399, 0.0 ], [ -109.585739570480001, 23.599502899068199, 0.0 ], [ -109.585606812313003, 23.599299398203598, 0.0 ], [ -109.585409422561995, 23.599411389007301, 0.0 ], [ -109.585365972950001, 23.599423997607499, 0.0 ], [ -109.585027520042004, 23.599412424616808, 0.0 ], [ -109.585179420824005, 23.598725882040998, 0.0 ], [ -109.584884514932, 23.598625200613409, 0.0 ], [ -109.584148905244007, 23.598463235976901, 0.0 ], [ -109.584062851854995, 23.598565894423398, 0.0 ], [ -109.583950918564994, 23.5984563219309, 0.0 ], [ -109.583833974534997, 23.5983512879926, 0.0 ], [ -109.583712236254001, 23.598250987037801, 0.0 ], [ -109.583563995543997, 23.598143190902501, 0.0 ], [ -109.583406889979003, 23.598046645010498, 0.0 ], [ -109.583241922441999, 23.597961965647599, 0.0 ], [ -109.583070145991996, 23.597889693349899, 0.0 ], [ -109.582892657149003, 23.5978302894538, 0.0 ], [ -109.582710588889, 23.597784133151301, 0.0 ], [ -109.582525103416003, 23.5977515190703, 0.0 ], [ -109.582378707892005, 23.597732913812099, 0.0 ], [ -109.582230938980999, 23.5977346573479, 0.0 ], [ -109.582050965728001, 23.597764927511101, 0.0 ], [ -109.581880144219994, 23.597825283255901, 0.0 ], [ -109.581724341441998, 23.597913651620399, 0.0 ], [ -109.581588908580002, 23.598026997528098, 0.0 ], [ -109.581478497229995, 23.5981614280245, 0.0 ], [ -109.581396899641007, 23.598312325977901, 0.0 ], [ -109.58134691846, 23.598474508653101, 0.0 ], [ -109.581321615817004, 23.598600859167401, 0.0 ], [ -109.581274743730006, 23.598774949048099, 0.0 ], [ -109.581215093919994, 23.598945686699299, 0.0 ], [ -109.581142944253003, 23.599112276640099, 0.0 ], [ -109.581058630835997, 23.5992739427118, 0.0 ], [ -109.580962546452, 23.5994299316935, 0.0 ], [ -109.580855138732005, 23.599579516812309, 0.0 ], [ -109.580736908068005, 23.599722001129798, 0.0 ], [ -109.580608405283996, 23.599856720789099, 0.0 ], [ -109.580470229067998, 23.599983048108601, 0.0 ], [ -109.580323023185997, 23.600100394506502, 0.0 ], [ -109.580167473475996, 23.6002082132438, 0.0 ], [ -109.580004304661003, 23.6003060019716, 0.0 ], [ -109.579834276967006, 23.600393305072199, 0.0 ], [ -109.579658182581994, 23.6004697157823, 0.0 ], [ -109.579476841962006, 23.600534878088101, 0.0 ], [ -109.579307194422995, 23.600610648779099, 0.0 ], [ -109.579160437024001, 23.600719698851801, 0.0 ], [ -109.579044118476006, 23.6008564191748, 0.0 ], [ -109.57896422188, 23.601013777346498, 0.0 ], [ -109.578924856973003, 23.601183679405501, 0.0 ], [ -109.578928048712001, 23.601357386146098, 0.0 ], [ -109.578973633090001, 23.601525962629299, 0.0 ], [ -109.579059265534994, 23.6016807377672, 0.0 ], [ -109.579180541479005, 23.6018137503433, 0.0 ], [ -109.579331222894993, 23.601918158524199, 0.0 ], [ -109.579368508879995, 23.601875655027602, 0.0 ], [ -109.579405994401, 23.601832930919901, 0.0 ], [ -109.579433081741001, 23.601802058111399, 0.0 ], [ -109.579434524692005, 23.601785554911299, 0.0 ], [ -109.579308270493001, 23.6017014640287, 0.0 ], [ -109.579207134257999, 23.601592277459702, 0.0 ], [ -109.579136836122004, 23.6014641707328, 0.0 ], [ -109.579101351996997, 23.6013243894682, 0.0 ], [ -109.579102688719999, 23.601180839564702, 0.0 ], [ -109.579140770568998, 23.601041640046098, 0.0 ], [ -109.579213443574005, 23.6009146638592, 0.0 ], [ -109.579316597366002, 23.600807092595101, 0.0 ], [ -109.579444397667004, 23.6007250103169, 0.0 ], [ -109.579535356820003, 23.600688220403701, 0.0 ], [ -109.579716124357006, 23.600623664451199, 0.0 ], [ -109.579892038393993, 23.600548580375101, 0.0 ], [ -109.580062377779001, 23.600463275980101, 0.0 ], [ -109.580226444218994, 23.600368100968801, 0.0 ], [ -109.580383565139002, 23.600263445507402, 0.0 ], [ -109.580533096441002, 23.600149738626701, 0.0 ], [ -109.580674425145006, 23.6000274464622, 0.0 ], [ -109.580806971903996, 23.599897070343701, 0.0 ], [ -109.580930193374996, 23.599759144739199, 0.0 ], [ -109.581043584447997, 23.599614235064202, 0.0 ], [ -109.581146680318, 23.5994629353631, 0.0 ], [ -109.581239058386998, 23.599305865874001, 0.0 ], [ -109.58132034, 23.599143670485301, 0.0 ], [ -109.581390191992995, 23.5989770140968, 0.0 ], [ -109.581448328060006, 23.598806579892901, 0.0 ], [ -109.581494509926003, 23.598633066542298, 0.0 ], [ -109.581520303806002, 23.598504350115899, 0.0 ], [ -109.581571121113996, 23.598348904002599, 0.0 ], [ -109.581657172185999, 23.598207242575398, 0.0 ], [ -109.581774394372005, 23.598086053797299, 0.0 ], [ -109.581917253452005, 23.597991059084801, 0.0 ], [ -109.582079004912998, 23.597926743204098, 0.0 ], [ -109.582252012360001, 23.5978961425504, 0.0 ], [ -109.582253842859998, 23.597841669363401, 0.0 ], [ -109.582378578763993, 23.597841508341102, 0.0 ], [ -109.582502056351004, 23.597857795933098, 0.0 ], [ -109.582686423802997, 23.597890137106901, 0.0 ], [ -109.582867220649007, 23.597936540903, 0.0 ], [ -109.582873574640004, 23.5979390855567, 0.0 ], [ -109.582879147205006, 23.597942879013608, 0.0 ], [ -109.582883654254999, 23.597947727884701, 0.0 ], [ -109.582886866021994, 23.597953384976002, 0.0 ], [ -109.582888618772998, 23.597959561891098, 0.0 ], [ -109.582884375454, 23.598108989328701, 0.0 ], [ -109.582999325689997, 23.598151274878902, 0.0 ], [ -109.583006821568006, 23.598022035076902, 0.0 ], [ -109.583008005566995, 23.598015637897699, 0.0 ], [ -109.583010806464003, 23.598009683751101, 0.0 ], [ -109.583015063537999, 23.598004514295202, 0.0 ], [ -109.583020532511, 23.598000426161398, 0.0 ], [ -109.583026899564999, 23.5979976539329, 0.0 ], [ -109.583033799350005, 23.597996356684501, 0.0 ], [ -109.583040835944999, 23.597996608854299, 0.0 ], [ -109.583047605578997, 23.5979983959725, 0.0 ], [ -109.583204879383004, 23.598066220835399, 0.0 ], [ -109.583356002097005, 23.598145032602002, 0.0 ], [ -109.583500071687993, 23.598234360861099, 0.0 ], [ -109.583636228209997, 23.598333672429298, 0.0 ], [ -109.583762338417003, 23.598439756321699, 0.0 ], [ -109.583883551708993, 23.598550582257602, 0.0 ], [ -109.583999658291006, 23.598665958433401, 0.0 ], [ -109.584110457205995, 23.598785685169499, 0.0 ], [ -109.584134890813999, 23.5988208561376, 0.0 ], [ -109.584149905765003, 23.5988602584798, 0.0 ], [ -109.584154699273, 23.598901785538501, 0.0 ], [ -109.584139120176005, 23.599029835330199, 0.0 ], [ -109.584263881604997, 23.599166473902599, 0.0 ], [ -109.584281596286004, 23.599149261466099, 0.0 ], [ -109.584303225430006, 23.599136397837501, 0.0 ], [ -109.584327542045997, 23.5991286127514, 0.0 ], [ -109.584353166689993, 23.5991263478444, 0.0 ], [ -109.584378645713997, 23.599129731601199, 0.0 ], [ -109.584484657784003, 23.599237149774101, 0.0 ], [ -109.584591105304995, 23.5993442016809, 0.0 ], [ -109.584697986787006, 23.599450885822709, 0.0 ], [ -109.584833660254006, 23.599554551695199, 0.0 ], [ -109.584984583388007, 23.599638426344399, 0.0 ], [ -109.585147385274993, 23.5997006363874, 0.0 ], [ -109.585318429669002, 23.599739792327298, 0.0 ], [ -109.585493896206003, 23.599755019591001, 0.0 ], [ -109.585498945788999, 23.599755419049501, 0.0 ], [ -109.585503715374003, 23.599756998435002, 0.0 ], [ -109.585507885998993, 23.599759652126998, 0.0 ], [ -109.585511178754004, 23.599763202661201, 0.0 ], [ -109.585513373438999, 23.599767412597402, 0.0 ], [ -109.585514323284002, 23.5997720003982, 0.0 ], [ -109.585513964770001, 23.599776659256701, 0.0 ], [ -109.585482084603001, 23.599921248481898, 0.0 ], [ -109.585518587012999, 23.599923053186899, 0.0 ], [ -109.585575248252994, 23.599925854541699, 0.0 ], [ -109.585591534757995, 23.599820404983799, 0.0 ], [ -109.585602493259998, 23.599794563208299, 0.0 ], [ -109.585628627998005, 23.599767250130601, 0.0 ], [ -109.585673448007995, 23.599748348028601, 0.0 ], [ -109.585721235468995, 23.599747054217602, 0.0 ], [ -109.585795096607001, 23.5997424531764, 0.0 ], [ -109.585872248073002, 23.599737511443301, 0.0 ], [ -109.585982836545995, 23.5997227302576, 0.0 ], [ -109.586069921453998, 23.599708787311201, 0.0 ], [ -109.586150257325002, 23.599692736988501, 0.0 ], [ -109.586219718739002, 23.599676824244899, 0.0 ], [ -109.586321603190001, 23.599648193339199, 0.0 ], [ -109.586418411194998, 23.599622265765401, 0.0 ], [ -109.586575771073996, 23.5995672075858, 0.0 ], [ -109.586721738243, 23.599489966531401, 0.0 ], [ -109.586835048032, 23.599425081987899, 0.0 ], [ -109.586945525567998, 23.5993561742651, 0.0 ], [ -109.587044794841006, 23.599303254003999, 0.0 ], [ -109.587150257372997, 23.5992617362731, 0.0 ], [ -109.587327193964995, 23.599216165934202, 0.0 ], [ -109.587509339942997, 23.599194074853319, 0.0 ], [ -109.587693045807995, 23.599195905654799, 0.0 ], [ -109.587874630808003, 23.5992216216613, 0.0 ], [ -109.587895411180995, 23.599230679837799, 0.0 ], [ -109.587913587558006, 23.5992436491278, 0.0 ], [ -109.587928307159999, 23.599259921052301, 0.0 ], [ -109.587938879386996, 23.599278732182601, 0.0 ], [ -109.587944808219007, 23.5992991999582, 0.0 ], [ -109.588030455153003, 23.599299429458998, 0.0 ], [ -109.588218726668003, 23.5993074494484, 0.0 ], [ -109.588381298493999, 23.599321082327599, 0.0 ], [ -109.588537331355994, 23.599365299634499, 0.0 ], [ -109.588680125745, 23.599438202838702, 0.0 ], [ -109.588803550535999, 23.599536661733499, 0.0 ], [ -109.588919168228998, 23.5996574255364, 0.0 ], [ -109.589026563984007, 23.599784473230699, 0.0 ], [ -109.589125336546005, 23.5999173301681, 0.0 ], [ -109.589215116873007, 23.6000554999953, 0.0 ], [ -109.589295569515002, 23.600198466508498, 0.0 ], [ -109.589386531217002, 23.6003501606647, 0.0 ], [ -109.589495624706004, 23.6004913364877, 0.0 ], [ -109.589499141966996, 23.600496465413499, 0.0 ], [ -109.589501332411999, 23.600502187063601, 0.0 ], [ -109.589502086177006, 23.600508214458898, 0.0 ], [ -109.589501365453998, 23.600514245285598, 0.0 ], [ -109.589499206393, 23.600519977057399, 0.0 ], [ -109.589495717283995, 23.6005251222876, 0.0 ], [ -109.589491073128997, 23.600529422908501, 0.0 ], [ -109.589354873136003, 23.6006482307981, 0.0 ], [ -109.589241652203, 23.600786008666098, 0.0 ], [ -109.589154474291007, 23.600939028082909, 0.0 ], [ -109.589095698633002, 23.601103148153399, 0.0 ], [ -109.589066915881006, 23.601273927570301, 0.0 ], [ -109.589020685172002, 23.601300944797099, 0.0 ], [ -109.588983329200005, 23.601337821645998, 0.0 ], [ -109.588957256659, 23.601382180322599, 0.0 ], [ -109.588944148704002, 23.601431160607, 0.0 ], [ -109.588944850542006, 23.6014816042779, 0.0 ], [ -109.588959316933995, 23.601530258752302, 0.0 ], [ -109.588986615107999, 23.601573986809999, 0.0 ], [ -109.589024984898998, 23.601609968881199, 0.0 ], [ -109.589071952243003, 23.6016358848523, 0.0 ], [ -109.589124488701998, 23.6016500636673, 0.0 ], [ -109.589136892910005, 23.6016923744845, 0.0 ], [ -109.589186892615999, 23.601807552170008, 0.0 ], [ -109.589264439725, 23.601908952716201, 0.0 ], [ -109.589365330369006, 23.601991079069801, 0.0 ], [ -109.589753918547999, 23.6022396805512, 0.0 ], [ -109.589810365508995, 23.602285383006201, 0.0 ], [ -109.589854139413006, 23.602341661928609, 0.0 ], [ -109.589882973719, 23.602405603311102, 0.0 ], [ -109.589895375419999, 23.602473896395399, 0.0 ], [ -109.589895001011001, 23.602527453287699, 0.0 ], [ -109.589907241888, 23.602688966234702, 0.0 ], [ -109.589931995911996, 23.602849257564699, 0.0 ], [ -109.589969136153996, 23.603007505072298, 0.0 ], [ -109.590018472150007, 23.6031628970326, 0.0 ], [ -109.590079750873997, 23.6033146363655, 0.0 ], [ -109.590152658039003, 23.603461944723801, 0.0 ], [ -109.590236819704998, 23.6036040664866, 0.0 ], [ -109.590331804198001, 23.6037402726351, 0.0 ], [ -109.590450615525995, 23.603869860722099, 0.0 ], [ -109.590579452319005, 23.603991041218499, 0.0 ], [ -109.590717616084007, 23.6041031571134, 0.0 ], [ -109.590864357754995, 23.6042056005404, 0.0 ], [ -109.591018881752007, 23.6042978160731, 0.0 ], [ -109.591180350295005, 23.604379303736799, 0.0 ], [ -109.591347887948004, 23.604449621720399, 0.0 ], [ -109.591522343779005, 23.6045186914818, 0.0 ], [ -109.591689657196994, 23.604601417489398, 0.0 ], [ -109.591848572271999, 23.6046971787746, 0.0 ], [ -109.591997896107998, 23.604805256519601, 0.0 ], [ -109.592136507795004, 23.604924839452099, 0.0 ], [ -109.592263366824994, 23.605055029934899, 0.0 ], [ -109.592377520902005, 23.6051948507031, 0.0 ], [ -109.592472053937996, 23.6053328669657, 0.0 ], [ -109.592493543320998, 23.6053460848828, 0.0 ], [ -109.592563863768007, 23.605458811188399, 0.0 ], [ -109.592636841154004, 23.605570094234199, 0.0 ], [ -109.592733228594, 23.605709221987301, 0.0 ], [ -109.592798602105006, 23.605798975026701, 0.0 ], [ -109.592865729359005, 23.6058876220151, 0.0 ], [ -109.592939237077999, 23.6059735355032, 0.0 ], [ -109.593073559594998, 23.6058952500976, 0.0 ], [ -109.592993494797, 23.6058038687822, 0.0 ], [ -109.592920787707996, 23.6057076461375, 0.0 ], [ -109.592850198128005, 23.605610093803001, 0.0 ], [ -109.592772105994996, 23.605496956852299, 0.0 ], [ -109.592696650953002, 23.6053818609033, 0.0 ], [ -109.592624018937002, 23.605265232981701, 0.0 ], [ -109.592631821438999, 23.605259652530702, 0.0 ], [ -109.592535399295997, 23.6051173083438, 0.0 ], [ -109.592427470304997, 23.604982160121601, 0.0 ], [ -109.592308663978997, 23.604854996094701, 0.0 ], [ -109.592179673268006, 23.604736557924301, 0.0 ], [ -109.592041250513006, 23.604627536377802, 0.0 ], [ -109.591894203059994, 23.604528567299599, 0.0 ], [ -109.591739388551005, 23.604440227903599, 0.0 ], [ -109.591577709920003, 23.604363033407299, 0.0 ], [ -109.591410110130994, 23.604297434026801, 0.0 ], [ -109.591230833732993, 23.604226120590099, 0.0 ], [ -109.591059656946996, 23.604139540885299, 0.0 ], [ -109.590898106398996, 23.6040384670785, 0.0 ], [ -109.590747622853002, 23.603923800599301, 0.0 ], [ -109.590609548363005, 23.603796564100801, 0.0 ], [ -109.590485114301998, 23.603657892337999, 0.0 ], [ -109.590375430378003, 23.603509022046499, 0.0 ], [ -109.590281474744998, 23.6033512809122, 0.0 ], [ -109.590204085273996, 23.603186075729202, 0.0 ], [ -109.590143952085, 23.603014879853198, 0.0 ], [ -109.590101611395994, 23.602839220060801, 0.0 ], [ -109.590077440738995, 23.602660662932699, 0.0 ], [ -109.590071655599004, 23.6024808008825, 0.0 ], [ -109.590056055483998, 23.602375230604199, 0.0 ], [ -109.590015095607001, 23.6022755962513, 0.0 ], [ -109.589950873798998, 23.6021870006314, 0.0 ], [ -109.589866679237005, 23.602113981189198, 0.0 ], [ -109.589465896427001, 23.601857538212201, 0.0 ], [ -109.589395797069002, 23.601800469409302, 0.0 ], [ -109.589341916768007, 23.601730010190199, 0.0 ], [ -109.589307175800997, 23.601649979436498, 0.0 ], [ -109.589299517325003, 23.6016238564556, 0.0 ], [ -109.589298536320996, 23.601618140250899, 0.0 ], [ -109.589298895184001, 23.601612362456699, 0.0 ], [ -109.589300577537998, 23.601606786734401, 0.0 ], [ -109.589303506611003, 23.6016016675235, 0.0 ], [ -109.589307548739001, 23.6015972384318, 0.0 ], [ -109.589340947324004, 23.601559431516002, 0.0 ], [ -109.589363349199004, 23.601515267398799, 0.0 ], [ -109.589373405453003, 23.601467405411409, 0.0 ], [ -109.589370510563995, 23.6014187275483, 0.0 ], [ -109.589354838860999, 23.601372164928598, 0.0 ], [ -109.589327334022997, 23.601330521300099, 0.0 ], [ -109.589289652248993, 23.601296304212799, 0.0 ], [ -109.589244062533993, 23.601271574029312, 0.0 ], [ -109.589279772755006, 23.601097889189599, 0.0 ], [ -109.589352106392994, 23.600934163685508, 0.0 ], [ -109.589458197121004, 23.600786885098501, 0.0 ], [ -109.589593841034997, 23.600661889286702, 0.0 ], [ -109.589710110872005, 23.600565409291299, 0.0 ], [ -109.589820650888001, 23.600463369906201, 0.0 ], [ -109.589925148505998, 23.600356059682301, 0.0 ], [ -109.590023308238003, 23.600243782075101, 0.0 ], [ -109.590056005042996, 23.600271981814299, 0.0 ], [ -109.590075857784996, 23.600289819166399, 0.0 ], [ -109.590094973071999, 23.600307769036, 0.0 ], [ -109.590114165678003, 23.600326588215999, 0.0 ], [ -109.590133249206005, 23.600346066313801, 0.0 ], [ -109.590152305367994, 23.60036625016, 0.0 ], [ -109.590171329884001, 23.600387095294, 0.0 ], [ -109.590190338918006, 23.600408577393601, 0.0 ], [ -109.590209302963004, 23.600430618442399, 0.0 ], [ -109.590228327892007, 23.600453290389002, 0.0 ], [ -109.590247399163005, 23.6004765158408, 0.0 ], [ -109.590261949962994, 23.6004945665923, 0.0 ], [ -109.590271557505005, 23.600506581607299, 0.0 ], [ -109.590281189549003, 23.600518715568601, 0.0 ], [ -109.590290848500999, 23.600530963426401, 0.0 ], [ -109.590300536585005, 23.6005433198543, 0.0 ], [ -109.590310189503995, 23.600555694207799, 0.0 ], [ -109.590320010865995, 23.600568337646799, 0.0 ], [ -109.590329808774996, 23.6005809943385, 0.0 ], [ -109.590339623717995, 23.600593709006802, 0.0 ], [ -109.590347176421005, 23.600603515074202, 0.0 ], [ -109.590352107019001, 23.600609922992309, 0.0 ], [ -109.590357037076004, 23.600616336395799, 0.0 ], [ -109.590361966863995, 23.6006227553485, 0.0 ], [ -109.590366896652, 23.600629179914499, 0.0 ], [ -109.590371826712001, 23.600635610157401, 0.0 ], [ -109.590376757314004, 23.600642046140798, 0.0 ], [ -109.590381688728996, 23.600648487928009, 0.0 ], [ -109.590386621228006, 23.600654935582501, 0.0 ], [ -109.590391555080004, 23.600661389167101, 0.0 ], [ -109.590396490558007, 23.600667848747499, 0.0 ], [ -109.590401428012001, 23.600674314488199, 0.0 ], [ -109.590406367491994, 23.600680786122702, 0.0 ], [ -109.590411309060002, 23.6006872633995, 0.0 ], [ -109.590416252904006, 23.600693746245401, 0.0 ], [ -109.590421199209999, 23.600700234587201, 0.0 ], [ -109.590426148164994, 23.6007067283517, 0.0 ], [ -109.590431099957001, 23.600713227465398, 0.0 ], [ -109.590436054772994, 23.600719731855101, 0.0 ], [ -109.590441012799999, 23.600726241447202, 0.0 ], [ -109.590445974223996, 23.600732756168199, 0.0 ], [ -109.590450939234003, 23.600739275944608, 0.0 ], [ -109.590455907985998, 23.600745800662601, 0.0 ], [ -109.590460880590001, 23.600752330161601, 0.0 ], [ -109.590465857336994, 23.600758864555601, 0.0 ], [ -109.590470838431003, 23.600765403780208, 0.0 ], [ -109.590475824061997, 23.600771947751699, 0.0 ], [ -109.590480814423003, 23.600778496386098, 0.0 ], [ -109.590485809707005, 23.6007850495997, 0.0 ], [ -109.590490810106004, 23.600791607308398, 0.0 ], [ -109.590495815812005, 23.600798169428199, 0.0 ], [ -109.590500827016996, 23.600804735874899, 0.0 ], [ -109.590505843914997, 23.600811306564498, 0.0 ], [ -109.590510866695993, 23.600817881412699, 0.0 ], [ -109.590515895555001, 23.6008244603353, 0.0 ], [ -109.590520930683994, 23.600831043247702, 0.0 ], [ -109.590525972275003, 23.6008376300659, 0.0 ], [ -109.590531020521993, 23.600844220705, 0.0 ], [ -109.590536075616001, 23.600850815080801, 0.0 ], [ -109.590541137751003, 23.600857413108599, 0.0 ], [ -109.590546207119004, 23.600864014703799, 0.0 ], [ -109.590551283913996, 23.600870619781599, 0.0 ], [ -109.590556368357994, 23.600877228296, 0.0 ], [ -109.590564065058004, 23.600887221754601, 0.0 ], [ -109.590574277214003, 23.600900451978099, 0.0 ], [ -109.590584524041006, 23.600913695208501, 0.0 ], [ -109.590594806924003, 23.6009269505522, 0.0 ], [ -109.590605127301998, 23.600940217187208, 0.0 ], [ -109.590615486638995, 23.600953494320699, 0.0 ], [ -109.590625888269003, 23.600966783549602, 0.0 ], [ -109.590636332661006, 23.6009800827667, 0.0 ], [ -109.590646817747, 23.600993386268499, 0.0 ], [ -109.590657348598995, 23.601006697550702, 0.0 ], [ -109.590667922031997, 23.601020009669199, 0.0 ], [ -109.590678535579997, 23.6010333167273, 0.0 ], [ -109.590689208629996, 23.601046640016701, 0.0 ], [ -109.590699931836994, 23.601059964893501, 0.0 ], [ -109.590710705524998, 23.601073288849008, 0.0 ], [ -109.590721534333994, 23.601086614735699, 0.0 ], [ -109.590732415887004, 23.601099936711901, 0.0 ], [ -109.590743353118, 23.6011132554254, 0.0 ], [ -109.590754343461995, 23.601126564834299, 0.0 ], [ -109.590765401301994, 23.6011398797895, 0.0 ], [ -109.590776510248006, 23.601153177369799, 0.0 ], [ -109.590787688049005, 23.601166475484799, 0.0 ], [ -109.590798918071997, 23.601179750948301, 0.0 ], [ -109.590810228335997, 23.601193031376699, 0.0 ], [ -109.590821612333997, 23.6012063078057, 0.0 ], [ -109.590833036345003, 23.6012195399612, 0.0 ], [ -109.590844468832998, 23.601232690796898, 0.0 ], [ -109.590855968097998, 23.601245830112202, 0.0 ], [ -109.590867486587001, 23.601258907293602, 0.0 ], [ -109.590874224622993, 23.6012665102933, 0.0 ], [ -109.59097698187, 23.601411153872501, 0.0 ], [ -109.591085341012999, 23.601552283030699, 0.0 ], [ -109.591199160676993, 23.601689713613599, 0.0 ], [ -109.59131829236, 23.601823266292602, 0.0 ], [ -109.591442580627003, 23.601952766798298, 0.0 ], [ -109.591571863313007, 23.602078046148499, 0.0 ], [ -109.591705971734996, 23.6021989408687, 0.0 ], [ -109.591844730909997, 23.6023152932048, 0.0 ], [ -109.591987959788, 23.602426951329999, 0.0 ], [ -109.592135471480006, 23.602533769542202, 0.0 ], [ -109.592287073511997, 23.602635608454609, 0.0 ], [ -109.592442568069004, 23.602732335177102, 0.0 ], [ -109.592601752253998, 23.602823823490599, 0.0 ], [ -109.592764418357007, 23.602909954011, 0.0 ], [ -109.593638423841995, 23.6033535755038, 0.0 ], [ -109.593780949815994, 23.6034433009828, 0.0 ], [ -109.593902307853995, 23.603556412670599, 0.0 ], [ -109.593998049442007, 23.603688764393102, 0.0 ], [ -109.594064665020994, 23.603835504706201, 0.0 ], [ -109.594121680580997, 23.603945516313399, 0.0 ], [ -109.594164037946996, 23.6038979103663, 0.0 ], [ -109.594500622195994, 23.604156098680999, 0.0 ], [ -109.594919969882994, 23.604268033205098, 0.0 ], [ -109.595302318072996, 23.603884029334601, 0.0 ], [ -109.594787074189, 23.603615018740999, 0.0 ], [ -109.594529275639999, 23.604098610349201, 0.0 ], [ -109.594359517716001, 23.6040087512776, 0.0 ], [ -109.594617128264005, 23.603526287123302, 0.0 ], [ -109.593426382784003, 23.602904581676899, 0.0 ], [ -109.592496896222002, 23.602423986791798, 0.0 ], [ -109.591998393896006, 23.6021848071703, 0.0 ], [ -109.591837837114994, 23.602021933821401, 0.0 ], [ -109.591607272432, 23.6017397314092, 0.0 ], [ -109.590089551654003, 23.600012634891499, 0.0 ], [ -109.588475061406001, 23.599042372226599, 0.0 ], [ -109.587807235979, 23.598819269649098, 0.0 ], [ -109.587687627682996, 23.598686999200702, 0.0 ], [ -109.587704345627003, 23.598620857373099, 0.0 ], [ -109.586097953147004, 23.598837525971, 0.0 ], [ -109.586222461852998, 23.598888248237699, 0.0 ], [ -109.586662677684004, 23.599188269964401, 0.0 ] ] ] } },
{ "type": "Feature", "properties": { "Name": "Poligono C0ADED", "description": null, "timestamp": null, "begin": null, "end": null, "altitudeMode": null, "tessellate": 1, "extrude": 0, "visibility": -1, "drawOrder": null, "icon": null }, "geometry": { "type": "Polygon", "coordinates": [ [ [ -109.574696255286, 23.5993297274265, 0.0 ], [ -109.574433782121005, 23.599795456046699, 0.0 ], [ -109.574757471943002, 23.599914304194201, 0.0 ], [ -109.574991164910003, 23.599984748551901, 0.0 ], [ -109.575071860449, 23.600025145579, 0.0 ], [ -109.575181236912002, 23.600079900470899, 0.0 ], [ -109.575287378705994, 23.6001274755215, 0.0 ], [ -109.575359189864002, 23.600159662778001, 0.0 ], [ -109.575593528046994, 23.600252020418601, 0.0 ], [ -109.575861326814007, 23.6003343485424, 0.0 ], [ -109.576129613242003, 23.6004597768952, 0.0 ], [ -109.576271031996001, 23.600575884592001, 0.0 ], [ -109.576605993794999, 23.600761284088801, 0.0 ], [ -109.576725033173005, 23.600844617921599, 0.0 ], [ -109.576951747018001, 23.600915244497401, 0.0 ], [ -109.577188110086993, 23.6010155406038, 0.0 ], [ -109.577384220007005, 23.601125221230699, 0.0 ], [ -109.577626005417002, 23.601257888086401, 0.0 ], [ -109.577856507915996, 23.601403689272299, 0.0 ], [ -109.578063193470001, 23.6015644413459, 0.0 ], [ -109.578288677448, 23.6017700333481, 0.0 ], [ -109.578403194703, 23.601830991181799, 0.0 ], [ -109.579026182904997, 23.602265819024399, 0.0 ], [ -109.579331208678994, 23.6019181677602, 0.0 ], [ -109.579180528251001, 23.601813759089101, 0.0 ], [ -109.579059253308003, 23.601680746304499, 0.0 ], [ -109.578973621794006, 23.601525971216201, 0.0 ], [ -109.578928038206001, 23.601357394998399, 0.0 ], [ -109.578924847064002, 23.601183688682099, 0.0 ], [ -109.578964212344999, 23.601013787140008, 0.0 ], [ -109.579044109080996, 23.600856429507399, 0.0 ], [ -109.579160427548999, 23.600719709677701, 0.0 ], [ -109.579307184681994, 23.600610659991901, 0.0 ], [ -109.579476831820998, 23.600534889533701, 0.0 ], [ -109.579658172440006, 23.600469727227999, 0.0 ], [ -109.579834266825003, 23.6003933165182, 0.0 ], [ -109.580004294518005, 23.600306013417899, 0.0 ], [ -109.580167463332003, 23.600208224690501, 0.0 ], [ -109.580323013040996, 23.6001004059537, 0.0 ], [ -109.580470218922997, 23.599983059556301, 0.0 ], [ -109.580608395138995, 23.599856732237399, 0.0 ], [ -109.580736897921994, 23.599722012578798, 0.0 ], [ -109.580855128585995, 23.599579528262002, 0.0 ], [ -109.580962536306004, 23.5994299431439, 0.0 ], [ -109.581058620689006, 23.599273954162999, 0.0 ], [ -109.581142934107007, 23.599112288092201, 0.0 ], [ -109.581215083773998, 23.5989456981521, 0.0 ], [ -109.581274733583996, 23.5987749605018, 0.0 ], [ -109.581321605672002, 23.598600870621901, 0.0 ], [ -109.581346908317997, 23.598474520091401, 0.0 ], [ -109.581396889499999, 23.598312337416601, 0.0 ], [ -109.581478487089001, 23.598161439463802, 0.0 ], [ -109.581588898438994, 23.598027008968, 0.0 ], [ -109.581724331301004, 23.597913663060702, 0.0 ], [ -109.581880134078006, 23.597825294696499, 0.0 ], [ -109.582050955585999, 23.597764938952, 0.0 ], [ -109.582230928838996, 23.597734668788998, 0.0 ], [ -109.582233682014007, 23.5976709597244, 0.0 ], [ -109.582248341091997, 23.597588235712099, 0.0 ], [ -109.582017209718998, 23.5975582103618, 0.0 ], [ -109.582097167073002, 23.597351138379601, 0.0 ], [ -109.576242880972003, 23.596579516329601, 0.0 ], [ -109.576216873587001, 23.596626070838099, 0.0 ], [ -109.576553451633004, 23.596701583996602, 0.0 ], [ -109.577121021725006, 23.596847938042298, 0.0 ], [ -109.576958293458006, 23.597370958815599, 0.0 ], [ -109.576816980627996, 23.597835196322102, 0.0 ], [ -109.576670271720005, 23.597795197854801, 0.0 ], [ -109.576554291150003, 23.597770570008201, 0.0 ], [ -109.576437016772005, 23.597740496009699, 0.0 ], [ -109.576337854496998, 23.597715066624101, 0.0 ], [ -109.576085749197006, 23.597694122465501, 0.0 ], [ -109.575652688358005, 23.597632612682101, 0.0 ], [ -109.574696255286, 23.5993297274265, 0.0 ] ] ] } },
{ "type": "Feature", "properties": { "Name": "Poligono C08F29", "description": null, "timestamp": null, "begin": null, "end": null, "altitudeMode": null, "tessellate": 1, "extrude": 0, "visibility": -1, "drawOrder": null, "icon": null }, "geometry": { "type": "Polygon", "coordinates": [ [ [ -109.582999838858001, 23.606265692934301, 0.0 ], [ -109.583052254189994, 23.6063242077125, 0.0 ], [ -109.583094489581995, 23.6063984944835, 0.0 ], [ -109.58312214947, 23.6064398214133, 0.0 ], [ -109.583172412004004, 23.606503578157799, 0.0 ], [ -109.583235360681002, 23.6066015851416, 0.0 ], [ -109.583274207198997, 23.606662611538699, 0.0 ], [ -109.583329307241996, 23.606721561500201, 0.0 ], [ -109.583413558331998, 23.606797121344599, 0.0 ], [ -109.583475930746999, 23.606841701121098, 0.0 ], [ -109.583581269788993, 23.6070012616849, 0.0 ], [ -109.583485645560003, 23.6070985512162, 0.0 ], [ -109.583501572138999, 23.607170343945899, 0.0 ], [ -109.583552658239995, 23.607251208898901, 0.0 ], [ -109.583594854889995, 23.607298938470901, 0.0 ], [ -109.583635419662997, 23.607342491209501, 0.0 ], [ -109.583708459356998, 23.6074158529931, 0.0 ], [ -109.583743570286998, 23.607443447848699, 0.0 ], [ -109.583800303464997, 23.607489709091301, 0.0 ], [ -109.583875685646007, 23.6075670058128, 0.0 ], [ -109.583935022998006, 23.607626435690101, 0.0 ], [ -109.583981673894996, 23.607695481179999, 0.0 ], [ -109.584047478656004, 23.607776760356408, 0.0 ], [ -109.584083407088997, 23.607826572271801, 0.0 ], [ -109.584120571533006, 23.6078790124701, 0.0 ], [ -109.584164236129993, 23.607928487366099, 0.0 ], [ -109.584207826218005, 23.607982030366308, 0.0 ], [ -109.584251767058007, 23.608036890986, 0.0 ], [ -109.584302887651006, 23.608088042238499, 0.0 ], [ -109.584397085231004, 23.60819861661, 0.0 ], [ -109.584439035057997, 23.608245464173301, 0.0 ], [ -109.584660627044997, 23.607846409981398, 0.0 ], [ -109.584722557191, 23.607701308939099, 0.0 ], [ -109.584772110657994, 23.607552225189401, 0.0 ], [ -109.584805090596006, 23.607419193858298, 0.0 ], [ -109.584828211363003, 23.607284408816, 0.0 ], [ -109.584721850036999, 23.607136705297499, 0.0 ], [ -109.584614310652, 23.606989727991401, 0.0 ], [ -109.584505599050004, 23.6068434848771, 0.0 ], [ -109.584395721137, 23.6066979838942, 0.0 ], [ -109.584284682884004, 23.6065532329417, 0.0 ], [ -109.58417249032, 23.6064092398782, 0.0 ], [ -109.584059149542995, 23.606266012521001, 0.0 ], [ -109.583944666708007, 23.606123558645699, 0.0 ], [ -109.583829048035, 23.6059818859861, 0.0 ], [ -109.583712299804006, 23.605841002233309, 0.0 ], [ -109.583594428357003, 23.605700915035701, 0.0 ], [ -109.583475440097004, 23.605561631998501, 0.0 ], [ -109.583355341488001, 23.6054231606829, 0.0 ], [ -109.583234139051996, 23.605285508606499, 0.0 ], [ -109.583111839374993, 23.6051486832419, 0.0 ], [ -109.582988449097002, 23.605012692017102, 0.0 ], [ -109.582863974922006, 23.6048775423147, 0.0 ], [ -109.582738423609996, 23.604743241471599, 0.0 ], [ -109.582611801981997, 23.6046097967786, 0.0 ], [ -109.582484116912994, 23.604477215479999, 0.0 ], [ -109.582355375339006, 23.6043455047731, 0.0 ], [ -109.582225584252001, 23.604214671807998, 0.0 ], [ -109.582094750701998, 23.604084723687301, 0.0 ], [ -109.581962881794993, 23.6039556674652, 0.0 ], [ -109.581829984690998, 23.6038275101476, 0.0 ], [ -109.581696066609993, 23.603700258691799, 0.0 ], [ -109.581561134823005, 23.603573920005498, 0.0 ], [ -109.581425196658998, 23.603448500947199, 0.0 ], [ -109.581288259499999, 23.603324008325199, 0.0 ], [ -109.581150330783004, 23.6032004488975, 0.0 ], [ -109.581011417997999, 23.6030778293716, 0.0 ], [ -109.580871528689997, 23.602956156403899, 0.0 ], [ -109.580730670454997, 23.6028354365992, 0.0 ], [ -109.580588850941993, 23.602715676510702, 0.0 ], [ -109.580446077852997, 23.602596882639499, 0.0 ], [ -109.580063680544001, 23.6022871159681, 0.0 ], [ -109.579861837628997, 23.6021284729146, 0.0 ], [ -109.579673251265007, 23.6019831631838, 0.0 ], [ -109.579433071598004, 23.6018020695521, 0.0 ], [ -109.579026182890004, 23.602265819041801, 0.0 ], [ -109.579208654390996, 23.60239317788, 0.0 ], [ -109.579209584715997, 23.602426784595, 0.0 ], [ -109.579243249162005, 23.602498877188498, 0.0 ], [ -109.579278318294996, 23.602551256612699, 0.0 ], [ -109.579310717797995, 23.6025961501296, 0.0 ], [ -109.579369411268004, 23.602658180345198, 0.0 ], [ -109.579446484581993, 23.602718236538699, 0.0 ], [ -109.579549898612996, 23.602786311337301, 0.0 ], [ -109.579648123191006, 23.602859163124101, 0.0 ], [ -109.579694732617995, 23.6028821342274, 0.0 ], [ -109.579817113459995, 23.602971222797599, 0.0 ], [ -109.579881575358996, 23.603016544801498, 0.0 ], [ -109.579944011373996, 23.603085986581402, 0.0 ], [ -109.579969013299007, 23.603097791311001, 0.0 ], [ -109.580028112250005, 23.603158744331601, 0.0 ], [ -109.580074708504, 23.6031973547754, 0.0 ], [ -109.580123499593, 23.603248248073701, 0.0 ], [ -109.580157773978002, 23.6032832338053, 0.0 ], [ -109.580206217351005, 23.603329179825199, 0.0 ], [ -109.580256057436998, 23.6033867681911, 0.0 ], [ -109.580306274205995, 23.603452959056501, 0.0 ], [ -109.580352594903999, 23.603515821204802, 0.0 ], [ -109.580387990096, 23.6035604896752, 0.0 ], [ -109.580432174829994, 23.6035943312691, 0.0 ], [ -109.580490554627005, 23.603648916803401, 0.0 ], [ -109.580539934290996, 23.6037007818042, 0.0 ], [ -109.580580270168994, 23.603741543133399, 0.0 ], [ -109.580626892897996, 23.603784900521699, 0.0 ], [ -109.580678735237996, 23.603828747701801, 0.0 ], [ -109.580715118420002, 23.603874285798, 0.0 ], [ -109.580759734099004, 23.6039112738003, 0.0 ], [ -109.580798588072, 23.603952082630801, 0.0 ], [ -109.580880535052998, 23.604019727658301, 0.0 ], [ -109.580930859825003, 23.6040584460969, 0.0 ], [ -109.581000204676997, 23.6041131704254, 0.0 ], [ -109.58102922194, 23.6041529423849, 0.0 ], [ -109.581062505901997, 23.604177942988599, 0.0 ], [ -109.581110125476997, 23.604221089279701, 0.0 ], [ -109.581151605429994, 23.604260414084401, 0.0 ], [ -109.581219900826, 23.604317684459801, 0.0 ], [ -109.581240033765994, 23.604342932623201, 0.0 ], [ -109.581273027131999, 23.604365060682799, 0.0 ], [ -109.581313079698006, 23.604403016273402, 0.0 ], [ -109.581357849426993, 23.604443799122802, 0.0 ], [ -109.581415828538994, 23.6044994843853, 0.0 ], [ -109.581468839783, 23.6045517783697, 0.0 ], [ -109.581511979525999, 23.604592540534501, 0.0 ], [ -109.581575114190997, 23.604646135093301, 0.0 ], [ -109.581636306698996, 23.604708712682001, 0.0 ], [ -109.581672126659001, 23.604754744580301, 0.0 ], [ -109.581698491175999, 23.604774292745908, 0.0 ], [ -109.581769699244006, 23.6048210660365, 0.0 ], [ -109.581818621067995, 23.604876004268501, 0.0 ], [ -109.581884548199994, 23.604927972950001, 0.0 ], [ -109.581935665637999, 23.604988913435399, 0.0 ], [ -109.582029591311993, 23.605094454837701, 0.0 ], [ -109.582050822211002, 23.6051257548149, 0.0 ], [ -109.582076041633997, 23.6051551480972, 0.0 ], [ -109.582119584729995, 23.605191471178099, 0.0 ], [ -109.582190846413994, 23.605254181434798, 0.0 ], [ -109.582249313877, 23.6053319566258, 0.0 ], [ -109.582336237952006, 23.605443061572998, 0.0 ], [ -109.582426086965, 23.605549809784801, 0.0 ], [ -109.582456668711004, 23.605577856783199, 0.0 ], [ -109.582547950885996, 23.6056450336919, 0.0 ], [ -109.582644108840995, 23.605833692145399, 0.0 ], [ -109.582667948273993, 23.6058613781791, 0.0 ], [ -109.582733277798994, 23.605926127733799, 0.0 ], [ -109.582775308348005, 23.605990857724301, 0.0 ], [ -109.582802966461998, 23.606024245898102, 0.0 ], [ -109.582857161657003, 23.606072877270002, 0.0 ], [ -109.582922355625996, 23.606157899361101, 0.0 ], [ -109.582954496474997, 23.606205936868498, 0.0 ], [ -109.582999838858001, 23.606265692934301, 0.0 ] ] ] } },
{ "type": "Feature", "properties": { "Name": "Poligono C08F31", "description": null, "timestamp": null, "begin": null, "end": null, "altitudeMode": null, "tessellate": 1, "extrude": 0, "visibility": -1, "drawOrder": null, "icon": null }, "geometry": { "type": "Polygon", "coordinates": [ [ [ -109.579434514549007, 23.601785566352, 0.0 ], [ -109.579433071598004, 23.6018020695521, 0.0 ], [ -109.579608580599995, 23.601610697672299, 0.0 ], [ -109.579715519328005, 23.601576343122499, 0.0 ], [ -109.579800171556997, 23.6015517651498, 0.0 ], [ -109.579881189204997, 23.601553603238401, 0.0 ], [ -109.580140707645995, 23.601616342627299, 0.0 ], [ -109.581561191877, 23.602672593316999, 0.0 ], [ -109.581702941013006, 23.602653558713602, 0.0 ], [ -109.582119582724999, 23.599865946893502, 0.0 ], [ -109.582249963622004, 23.597981047753098, 0.0 ], [ -109.582254023874995, 23.597945660368602, 0.0 ], [ -109.582252132243994, 23.5978961443017, 0.0 ], [ -109.582079118680994, 23.597926719521901, 0.0 ], [ -109.581917355357007, 23.597991011935999, 0.0 ], [ -109.581774479296996, 23.598085986228899, 0.0 ], [ -109.581657235877998, 23.5982071585574, 0.0 ], [ -109.581571160373002, 23.598348808229101, 0.0 ], [ -109.581520316620995, 23.598504247775001, 0.0 ], [ -109.581494499803, 23.598633077886401, 0.0 ], [ -109.581448317942005, 23.598806591244401, 0.0 ], [ -109.581390181879001, 23.598977025455799, 0.0 ], [ -109.581320329888996, 23.599143681851999, 0.0 ], [ -109.581239048277993, 23.599305877248199, 0.0 ], [ -109.581146670210003, 23.599462946745, 0.0 ], [ -109.581043574340995, 23.599614246453498, 0.0 ], [ -109.580930183267, 23.599759156135701, 0.0 ], [ -109.580806961795005, 23.599897081746999, 0.0 ], [ -109.580674415033997, 23.600027457872098, 0.0 ], [ -109.580533086326, 23.6001497500427, 0.0 ], [ -109.580383555021001, 23.600263456929099, 0.0 ], [ -109.580226434097995, 23.6003681123955, 0.0 ], [ -109.580062367652999, 23.600463287411401, 0.0 ], [ -109.579892028261995, 23.600548591810199, 0.0 ], [ -109.579716114218996, 23.600623675889601, 0.0 ], [ -109.579535346677005, 23.6006882318446, 0.0 ], [ -109.579444387524006, 23.600725021757601, 0.0 ], [ -109.579316587223005, 23.600807104035798, 0.0 ], [ -109.579213433430994, 23.600914675299808, 0.0 ], [ -109.579140760426, 23.601041651486799, 0.0 ], [ -109.579102678577001, 23.601180851005399, 0.0 ], [ -109.579101341853999, 23.601324400908901, 0.0 ], [ -109.579136825979006, 23.601464182173501, 0.0 ], [ -109.579207124115001, 23.601592288900399, 0.0 ], [ -109.579308260350004, 23.601701475469401, 0.0 ], [ -109.579434514549007, 23.601785566352, 0.0 ] ] ] } },
{ "type": "Feature", "properties": { "Name": "Poligono C0ADE9", "description": null, "timestamp": null, "begin": null, "end": null, "altitudeMode": null, "tessellate": 1, "extrude": 0, "visibility": -1, "drawOrder": null, "icon": null }, "geometry": { "type": "Polygon", "coordinates": [ [ [ -109.575652688358005, 23.597632612681998, 0.0 ], [ -109.576085749195997, 23.597694122465398, 0.0 ], [ -109.576337854496998, 23.597715066624001, 0.0 ], [ -109.576437016772005, 23.5977404960096, 0.0 ], [ -109.576554291150003, 23.597770570008109, 0.0 ], [ -109.576670271720005, 23.597795197854701, 0.0 ], [ -109.576816980627996, 23.597835196321999, 0.0 ], [ -109.576958293458006, 23.5973709588155, 0.0 ], [ -109.576395122874004, 23.5972253669057, 0.0 ], [ -109.576350125239998, 23.5973632167, 0.0 ], [ -109.575869032925993, 23.597248719063099, 0.0 ], [ -109.575652688358005, 23.597632612681998, 0.0 ] ] ] } },
{ "type": "Feature", "properties": { "Name": "Poligono C08F32", "description": null, "timestamp": null, "begin": null, "end": null, "altitudeMode": null, "tessellate": 1, "extrude": 0, "visibility": -1, "drawOrder": null, "icon": null }, "geometry": { "type": "Polygon", "coordinates": [ [ [ -109.582230928838001, 23.597734668788899, 0.0 ], [ -109.582233787340002, 23.597668522466201, 0.0 ], [ -109.582248421648998, 23.597587781114001, 0.0 ], [ -109.582504739021999, 23.5976215429238, 0.0 ], [ -109.582593833239002, 23.5974184753392, 0.0 ], [ -109.584751462235005, 23.5977444014611, 0.0 ], [ -109.584062841713006, 23.598565905864501, 0.0 ], [ -109.583950908419993, 23.598456333370201, 0.0 ], [ -109.583833964388006, 23.598351299430298, 0.0 ], [ -109.583712226106002, 23.598250998474001, 0.0 ], [ -109.583563985392999, 23.598143202337599, 0.0 ], [ -109.583406879826001, 23.598046656444701, 0.0 ], [ -109.583241912285999, 23.5979619770814, 0.0 ], [ -109.583070135832997, 23.5978897047837, 0.0 ], [ -109.582892646987005, 23.5978303008878, 0.0 ], [ -109.582710578724004, 23.5977841445861, 0.0 ], [ -109.582525093247995, 23.597751530506201, 0.0 ], [ -109.582378697736999, 23.597732925252298, 0.0 ], [ -109.582230928838001, 23.597734668788899, 0.0 ] ] ] } },
{ "type": "Feature", "properties": { "Name": "Poligono C0ADE8", "description": null, "timestamp": null, "begin": null, "end": null, "altitudeMode": null, "tessellate": 1, "extrude": 0, "visibility": -1, "drawOrder": null, "icon": null }, "geometry": { "type": "Polygon", "coordinates": [ [ [ -109.583664211544004, 23.604864018211401, 0.0 ], [ -109.583821780446002, 23.605034178517101, 0.0 ], [ -109.583979349751999, 23.605204338678799, 0.0 ], [ -109.584136919461002, 23.605374498696399, 0.0 ], [ -109.584393457318996, 23.605640343845799, 0.0 ], [ -109.584412525093001, 23.6056549261545, 0.0 ], [ -109.584434954241004, 23.605664631552401, 0.0 ], [ -109.584459308863003, 23.605668838704499, 0.0 ], [ -109.584484029785997, 23.605667278270712, 0.0 ], [ -109.584507534387996, 23.605660050149101, 0.0 ], [ -109.584528317917005, 23.605647617080599, 0.0 ], [ -109.584744355870995, 23.605479031729612, 0.0 ], [ -109.584976877917995, 23.605297582159299, 0.0 ], [ -109.584992335335997, 23.605282085391298, 0.0 ], [ -109.585003516095995, 23.605263730808701, 0.0 ], [ -109.585009822142993, 23.605243500194899, 0.0 ], [ -109.585010916171001, 23.605222475681298, 0.0 ], [ -109.585006739662006, 23.605201781864501, 0.0 ], [ -109.584997516019996, 23.6051825256515, 0.0 ], [ -109.584983738616003, 23.605165737051902, 0.0 ], [ -109.584733969799004, 23.604908275126899, 0.0 ], [ -109.584576399808, 23.604738115695412, 0.0 ], [ -109.584418830220997, 23.604567956119801, 0.0 ], [ -109.584261261037, 23.6043977964001, 0.0 ], [ -109.584103692257003, 23.6042276365364, 0.0 ], [ -109.583946123879997, 23.604057476528599, 0.0 ], [ -109.583788555905997, 23.603887316376799, 0.0 ], [ -109.583630988335997, 23.603717156080801, 0.0 ], [ -109.583473421169998, 23.603546995640901, 0.0 ], [ -109.583315854407005, 23.603376835056899, 0.0 ], [ -109.583160481503995, 23.603205159889399, 0.0 ], [ -109.583102340674998, 23.603131679987801, 0.0 ], [ -109.583074632581003, 23.6030936968214, 0.0 ], [ -109.583056978696007, 23.6030509179955, 0.0 ], [ -109.583008445119006, 23.6028751599477, 0.0 ], [ -109.583022084899, 23.602652170004198, 0.0 ], [ -109.583035693030993, 23.602429178339701, 0.0 ], [ -109.583049301095997, 23.602206186665398, 0.0 ], [ -109.583062909093002, 23.601983194981599, 0.0 ], [ -109.583081442384, 23.601774376552999, 0.0 ], [ -109.582750372337003, 23.601748645468799, 0.0 ], [ -109.582771140044002, 23.601523980656498, 0.0 ], [ -109.583103146048998, 23.6015495002843, 0.0 ], [ -109.583123508859998, 23.6013245209469, 0.0 ], [ -109.583143871581001, 23.6010995415972, 0.0 ], [ -109.583164234210997, 23.600874562235209, 0.0 ], [ -109.583184596749007, 23.600649582860999, 0.0 ], [ -109.583204959195996, 23.600424603474298, 0.0 ], [ -109.583221867187007, 23.600192549570298, 0.0 ], [ -109.583238220824001, 23.599967292542701, 0.0 ], [ -109.583254574383005, 23.599742035504399, 0.0 ], [ -109.583270927864007, 23.599516778455399, 0.0 ], [ -109.583281700038, 23.5992829474933, 0.0 ], [ -109.583291919786006, 23.599060081809998, 0.0 ], [ -109.583302092341995, 23.5988372143463, 0.0 ], [ -109.583312264841993, 23.5986143468742, 0.0 ], [ -109.583326429674003, 23.598304136387799, 0.0 ], [ -109.583165962742996, 23.598222778215199, 0.0 ], [ -109.582999939136002, 23.598151515560101, 0.0 ], [ -109.582884364050003, 23.598109028403901, 0.0 ], [ -109.582721284415001, 23.598058350983301, 0.0 ], [ -109.582555110436999, 23.5980170845543, 0.0 ], [ -109.582539856677002, 23.5983512372514, 0.0 ], [ -109.582529682919002, 23.5985741046185, 0.0 ], [ -109.582519509104998, 23.598796971976999, 0.0 ], [ -109.582509335235997, 23.599019839327099, 0.0 ], [ -109.582499161311006, 23.599242706668701, 0.0 ], [ -109.582488914223006, 23.599466779117499, 0.0 ], [ -109.582472559394006, 23.599692036020102, 0.0 ], [ -109.582456204487997, 23.599917292911801, 0.0 ], [ -109.582439849557005, 23.6001425497961, 0.0 ], [ -109.582423775427998, 23.600364556992901, 0.0 ], [ -109.582403411667997, 23.6005895362151, 0.0 ], [ -109.582383047817004, 23.600814515425, 0.0 ], [ -109.582362683875004, 23.601039494622601, 0.0 ], [ -109.582342319841999, 23.601264473807799, 0.0 ], [ -109.582321955718001, 23.601489452980701, 0.0 ], [ -109.582653960604006, 23.601514983400499, 0.0 ], [ -109.582634059894005, 23.601739803508899, 0.0 ], [ -109.582302028219004, 23.601714562296799, 0.0 ], [ -109.582281723330993, 23.6019388850223, 0.0 ], [ -109.582268114024998, 23.6021618765756, 0.0 ], [ -109.582254504651004, 23.602384868119199, 0.0 ], [ -109.582240895210006, 23.6026078596533, 0.0 ], [ -109.582227285702004, 23.6028308511777, 0.0 ], [ -109.582258139275993, 23.603179602805302, 0.0 ], [ -109.582311993670999, 23.603328913323502, 0.0 ], [ -109.582389187594003, 23.603469256636799, 0.0 ], [ -109.582468917232006, 23.603575699493799, 0.0 ], [ -109.582562092013006, 23.603672425519999, 0.0 ], [ -109.582718914238995, 23.603843234136999, 0.0 ], [ -109.582875841651003, 23.604013894003099, 0.0 ], [ -109.583032769466001, 23.604184553726501, 0.0 ], [ -109.583191507259002, 23.604353536429901, 0.0 ], [ -109.583349074949993, 23.604523697167799, 0.0 ], [ -109.583506643044998, 23.6046938577616, 0.0 ], [ -109.583664211544004, 23.604864018211401, 0.0 ] ] ] } },
{ "type": "Feature", "properties": { "Name": "Poligono C11B4D", "description": null, "timestamp": null, "begin": null, "end": null, "altitudeMode": null, "tessellate": 1, "extrude": 0, "visibility": -1, "drawOrder": null, "icon": null }, "geometry": { "type": "Polygon", "coordinates": [ [ [ -109.588580782923003, 23.6043530710763, 0.0 ], [ -109.588744296992004, 23.604341863601899, 0.0 ], [ -109.588907065802999, 23.604360087374499, 0.0 ], [ -109.589062910486007, 23.604407050606401, 0.0 ], [ -109.589108646247993, 23.604435047188399, 0.0 ], [ -109.589146236581001, 23.6044719278079, 0.0 ], [ -109.589173695322998, 23.604515743810801, 0.0 ], [ -109.589189571630996, 23.604564180097601, 0.0 ], [ -109.589193026635002, 23.604614677444602, 0.0 ], [ -109.589183877769997, 23.604664567724999, 0.0 ], [ -109.589162608419997, 23.604711214885, 0.0 ], [ -109.589115647631999, 23.6047877269915, 0.0 ], [ -109.589087016541995, 23.604840337998901, 0.0 ], [ -109.589064265426998, 23.604895859363801, 0.0 ], [ -109.589067007927994, 23.604896151077899, 0.0 ], [ -109.589094010191999, 23.604899385931802, 0.0 ], [ -109.589113630485002, 23.6048518675554, 0.0 ], [ -109.589141586428994, 23.604800497144499, 0.0 ], [ -109.589188223294997, 23.604724510268301, 0.0 ], [ -109.589214163803007, 23.604665235041399, 0.0 ], [ -109.589222746732005, 23.604601812456099, 0.0 ], [ -109.589213398403999, 23.604538481819599, 0.0 ], [ -109.589186743705, 23.604479476286901, 0.0 ], [ -109.589156695878998, 23.604440735762001, 0.0 ], [ -109.589119145302007, 23.6044080227873, 0.0 ], [ -109.589075485234005, 23.604382551125902, 0.0 ], [ -109.588913976987001, 23.604333750548701, 0.0 ], [ -109.588745258960003, 23.6043147856399, 0.0 ], [ -109.588575756623001, 23.6043263786549, 0.0 ], [ -109.588479519263004, 23.604330853617299, 0.0 ], [ -109.588384937119997, 23.6043138759707, 0.0 ], [ -109.588297558506994, 23.6042764416487, 0.0 ], [ -109.588222509158001, 23.6042207465985, 0.0 ], [ -109.588164191540002, 23.6041500579611, 0.0 ], [ -109.588126026601003, 23.604068522413002, 0.0 ], [ -109.588110253096005, 23.6039809229143, 0.0 ], [ -109.588117796269003, 23.603892398132601, 0.0 ], [ -109.588148213585995, 23.603808141003299, 0.0 ], [ -109.588199720705006, 23.6037330941089, 0.0 ], [ -109.589017409918, 23.6028480325697, 0.0 ], [ -109.589055441563005, 23.602806420670198, 0.0 ], [ -109.589033039444999, 23.6027888450215, 0.0 ], [ -109.588994971381993, 23.6028305289644, 0.0 ], [ -109.588994971104995, 23.602830529264601, 0.0 ], [ -109.588177149488999, 23.603715733965, 0.0 ], [ -109.588121762468006, 23.6037963155282, 0.0 ], [ -109.588089029846998, 23.603886806691101, 0.0 ], [ -109.588080872890998, 23.603981896140098, 0.0 ], [ -109.588097770418003, 23.604076002657699, 0.0 ], [ -109.588138730690005, 23.604163602707199, 0.0 ], [ -109.588201349604006, 23.604239554635299, 0.0 ], [ -109.588281951791998, 23.604299400461901, 0.0 ], [ -109.588375806344004, 23.6043396275447, 0.0 ], [ -109.588477404486994, 23.604357874756701, 0.0 ], [ -109.588580782923003, 23.6043530710763, 0.0 ] ] ] } },
{ "type": "Feature", "properties": { "Name": "Poligono C4A51E", "description": null, "timestamp": null, "begin": null, "end": null, "altitudeMode": null, "tessellate": 1, "extrude": 0, "visibility": -1, "drawOrder": null, "icon": null }, "geometry": { "type": "Polygon", "coordinates": [ [ [ -109.592850022670007, 23.605609959210501, 0.0 ], [ -109.592920612249003, 23.605707511545098, 0.0 ], [ -109.592993319338007, 23.605803734189699, 0.0 ], [ -109.593073384137, 23.605895115505302, 0.0 ], [ -109.593125643969003, 23.6058646951087, 0.0 ], [ -109.593321116224999, 23.605728600972299, 0.0 ], [ -109.593516587745995, 23.605592506156601, 0.0 ], [ -109.593712058867993, 23.605456411073, 0.0 ], [ -109.593907525743006, 23.6053203110264, 0.0 ], [ -109.594097994484997, 23.605187706581301, 0.0 ], [ -109.594165794326997, 23.605116124030001, 0.0 ], [ -109.594322246258002, 23.604943834272198, 0.0 ], [ -109.594476980446998, 23.6047688022161, 0.0 ], [ -109.594919629106997, 23.604267752582999, 0.0 ], [ -109.594500446737996, 23.604155964090399, 0.0 ], [ -109.594164037970003, 23.6038979103838, 0.0 ], [ -109.593514120885004, 23.604628354640901, 0.0 ], [ -109.592648085223999, 23.605247760374599, 0.0 ], [ -109.592621135108999, 23.605260629627701, 0.0 ], [ -109.592695066705005, 23.605379520785199, 0.0 ], [ -109.592771930536998, 23.605496822259699, 0.0 ], [ -109.592850022670007, 23.605609959210501, 0.0 ] ] ] } },
{ "type": "Feature", "properties": { "Name": "Poligono C4A51F", "description": null, "timestamp": null, "begin": null, "end": null, "altitudeMode": null, "tessellate": 1, "extrude": 0, "visibility": -1, "drawOrder": null, "icon": null }, "geometry": { "type": "Polygon", "coordinates": [ [ [ -109.592939002719007, 23.605973338645601, 0.0 ], [ -109.592865553901007, 23.605887487422599, 0.0 ], [ -109.592798426646993, 23.605798840434201, 0.0 ], [ -109.592733053136001, 23.6057090873947, 0.0 ], [ -109.592636665697, 23.6055699596415, 0.0 ], [ -109.592563688309994, 23.6054586765956, 0.0 ], [ -109.592493367863, 23.605345950289902, 0.0 ], [ -109.592471878479998, 23.605332732372801, 0.0 ], [ -109.592463953057006, 23.605335687253799, 0.0 ], [ -109.592223689703005, 23.6053800386345, 0.0 ], [ -109.591983426241995, 23.605424389808501, 0.0 ], [ -109.591825780831996, 23.605453489583699, 0.0 ], [ -109.591777687713005, 23.605449935727702, 0.0 ], [ -109.591533057557001, 23.605436757980701, 0.0 ], [ -109.591288487659, 23.605422888229999, 0.0 ], [ -109.591092106098003, 23.605412108939699, 0.0 ], [ -109.589645408788002, 23.6049698105573, 0.0 ], [ -109.589409041096999, 23.604938330625401, 0.0 ], [ -109.589166282338994, 23.604907919971499, 0.0 ], [ -109.589066841244005, 23.604896007016102, 0.0 ], [ -109.588765556582999, 23.604863959707409, 0.0 ], [ -109.588462275734997, 23.604865511951399, 0.0 ], [ -109.588217335378005, 23.604870006313899, 0.0 ], [ -109.587972473652997, 23.604874498846499, 0.0 ], [ -109.587727454668993, 23.604878994779799, 0.0 ], [ -109.587482513053999, 23.6048834757365, 0.0 ], [ -109.587237563393998, 23.604887963538001, 0.0 ], [ -109.586992503182003, 23.604893491616501, 0.0 ], [ -109.586772805001004, 23.605034908324999, 0.0 ], [ -109.586662455459006, 23.6052599590606, 0.0 ], [ -109.586670507581999, 23.6056670555033, 0.0 ], [ -109.586915472646993, 23.6056637218453, 0.0 ], [ -109.587256425869001, 23.605659067113201, 0.0 ], [ -109.587501389655003, 23.605655731564401, 0.0 ], [ -109.587746353388994, 23.6056523956292, 0.0 ], [ -109.587991317133003, 23.605649059306799, 0.0 ], [ -109.588236280811998, 23.605645717944409, 0.0 ], [ -109.588481244498993, 23.605642376194599, 0.0 ], [ -109.588718202815002, 23.605639152439799, 0.0 ], [ -109.588968613524997, 23.605669506709201, 0.0 ], [ -109.589056056779995, 23.605680106302199, 0.0 ], [ -109.589438837252004, 23.605726505136399, 0.0 ], [ -109.589539109718004, 23.605756521268798, 0.0 ], [ -109.589773298731998, 23.6058266244439, 0.0 ], [ -109.590007488013995, 23.6058967272768, 0.0 ], [ -109.590241677562005, 23.605966829767699, 0.0 ], [ -109.590475867376995, 23.606036931916499, 0.0 ], [ -109.590710057459006, 23.606107033723099, 0.0 ], [ -109.590964498722997, 23.606175445167999, 0.0 ], [ -109.591208879942002, 23.606191510675298, 0.0 ], [ -109.591453261241995, 23.6062075758005, 0.0 ], [ -109.591697642130995, 23.606223640511502, 0.0 ], [ -109.591795698477995, 23.606231161540201, 0.0 ], [ -109.591894050937995, 23.6062284820751, 0.0 ], [ -109.592028233267001, 23.606208056801009, 0.0 ], [ -109.592280788116994, 23.6061537919506, 0.0 ], [ -109.592531970102002, 23.606100568335101, 0.0 ], [ -109.592770072039997, 23.6060501157082, 0.0 ], [ -109.592848368795998, 23.6060260963399, 0.0 ], [ -109.592939002719007, 23.605973338645601, 0.0 ] ] ] } },
{ "type": "Feature", "properties": { "Name": "Poligono C0AE42", "description": null, "timestamp": null, "begin": null, "end": null, "altitudeMode": null, "tessellate": 1, "extrude": 0, "visibility": -1, "drawOrder": null, "icon": null }, "geometry": { "type": "Polygon", "coordinates": [ [ [ -109.589307000351994, 23.601649844840299, 0.0 ], [ -109.589299341876, 23.6016237218595, 0.0 ], [ -109.589298360871993, 23.6016180056547, 0.0 ], [ -109.589298719734998, 23.601612227860599, 0.0 ], [ -109.589300402088995, 23.601606652138202, 0.0 ], [ -109.589303331162, 23.6016015329274, 0.0 ], [ -109.589307373289998, 23.601597103835701, 0.0 ], [ -109.589340771875001, 23.601559296919898, 0.0 ], [ -109.589363173750002, 23.6015151328027, 0.0 ], [ -109.589373230004, 23.601467270815299, 0.0 ], [ -109.589370335115007, 23.6014185929522, 0.0 ], [ -109.589354663411996, 23.601372030332598, 0.0 ], [ -109.589327158573994, 23.601330386703999, 0.0 ], [ -109.589289476800005, 23.601296169616599, 0.0 ], [ -109.589243887085004, 23.601271439433201, 0.0 ], [ -109.589279597306003, 23.6010977545935, 0.0 ], [ -109.589351930945, 23.600934029089501, 0.0 ], [ -109.589458021672996, 23.6007867505026, 0.0 ], [ -109.589593665587003, 23.600661754690901, 0.0 ], [ -109.589709935423002, 23.600565274695601, 0.0 ], [ -109.589820475438998, 23.600463235310599, 0.0 ], [ -109.589924973058004, 23.600355925086902, 0.0 ], [ -109.590023132789995, 23.6002436474798, 0.0 ], [ -109.590050585678995, 23.600267324544799, 0.0 ], [ -109.590060744008994, 23.600276262738099, 0.0 ], [ -109.590070696688002, 23.600285205051598, 0.0 ], [ -109.590080439076004, 23.600294151303501, 0.0 ], [ -109.590090042369994, 23.600303169105601, 0.0 ], [ -109.590099651597001, 23.600312393972001, 0.0 ], [ -109.590109239884001, 23.600321795702101, 0.0 ], [ -109.590118810527997, 23.600331373584499, 0.0 ], [ -109.590128361783002, 23.6003411223207, 0.0 ], [ -109.590137903789994, 23.6003510475783, 0.0 ], [ -109.590147435335993, 23.6003611431709, 0.0 ], [ -109.590156958256998, 23.600371405967302, 0.0 ], [ -109.590166474417003, 23.600381832810498, 0.0 ], [ -109.590175985705997, 23.600392420516901, 0.0 ], [ -109.590185494042004, 23.600403165882302, 0.0 ], [ -109.590195002211004, 23.600414066649702, 0.0 ], [ -109.590204502041999, 23.600425107871398, 0.0 ], [ -109.590214015729998, 23.600436309119601, 0.0 ], [ -109.590223538825995, 23.600447657761801, 0.0 ], [ -109.590233073693994, 23.600459149012899, 0.0 ], [ -109.590242622888994, 23.6004707782512, 0.0 ], [ -109.590252188972997, 23.600482540815801, 0.0 ], [ -109.590261774514005, 23.600494431997301, 0.0 ], [ -109.590271382056002, 23.6005064470123, 0.0 ], [ -109.5902810141, 23.6005185809735, 0.0 ], [ -109.590290673051996, 23.600530828831399, 0.0 ], [ -109.590300361136002, 23.600543185259301, 0.0 ], [ -109.590310014055007, 23.6005555596128, 0.0 ], [ -109.590319835417006, 23.6005682030518, 0.0 ], [ -109.590329633325993, 23.600580859743499, 0.0 ], [ -109.590339448269006, 23.600593574411899, 0.0 ], [ -109.590347000972002, 23.600603380479299, 0.0 ], [ -109.590351931569998, 23.600609788397399, 0.0 ], [ -109.590356861627001, 23.600616201800801, 0.0 ], [ -109.590361791415006, 23.600622620753601, 0.0 ], [ -109.590366721202997, 23.6006290453196, 0.0 ], [ -109.590371651262998, 23.600635475562498, 0.0 ], [ -109.590376581865002, 23.6006419115459, 0.0 ], [ -109.590381513279993, 23.600648353333099, 0.0 ], [ -109.590386445779004, 23.600654800987499, 0.0 ], [ -109.590391379631001, 23.600661254572199, 0.0 ], [ -109.590396315109004, 23.6006677141526, 0.0 ], [ -109.590401252562998, 23.6006741798933, 0.0 ], [ -109.590406192043005, 23.600680651527799, 0.0 ], [ -109.590411133610999, 23.600687128804601, 0.0 ], [ -109.590416077455004, 23.600693611650499, 0.0 ], [ -109.590421023760996, 23.600700099992402, 0.0 ], [ -109.590425972716005, 23.600706593756801, 0.0 ], [ -109.590430924507999, 23.6007130928705, 0.0 ], [ -109.590435879324005, 23.600719597260198, 0.0 ], [ -109.590440837350002, 23.600726106852299, 0.0 ], [ -109.590445798774994, 23.6007326215734, 0.0 ], [ -109.590450763785, 23.600739141349699, 0.0 ], [ -109.590455732536995, 23.600745666067699, 0.0 ], [ -109.590460705140998, 23.600752195566798, 0.0 ], [ -109.590465681888006, 23.600758729960798, 0.0 ], [ -109.590470662981005, 23.600765269185398, 0.0 ], [ -109.590475648612994, 23.6007718131569, 0.0 ], [ -109.590480638974, 23.600778361791299, 0.0 ], [ -109.590485634258002, 23.600784915004901, 0.0 ], [ -109.590490634657002, 23.600791472713599, 0.0 ], [ -109.590495640361993, 23.600798034833399, 0.0 ], [ -109.590500651567993, 23.6008046012801, 0.0 ], [ -109.590505668464999, 23.600811171969699, 0.0 ], [ -109.590510691247005, 23.600817746817899, 0.0 ], [ -109.590515720105998, 23.600824325740501, 0.0 ], [ -109.590520755235005, 23.600830908652998, 0.0 ], [ -109.590525796826, 23.600837495471101, 0.0 ], [ -109.590530845071996, 23.6008440861103, 0.0 ], [ -109.590535900166003, 23.600850680486001, 0.0 ], [ -109.590540962301006, 23.600857278513899, 0.0 ], [ -109.590546031669007, 23.600863880108999, 0.0 ], [ -109.590551108463998, 23.6008704851868, 0.0 ], [ -109.590556192907997, 23.6008770937013, 0.0 ], [ -109.590563889609001, 23.600887087159901, 0.0 ], [ -109.590574101764005, 23.600900317383399, 0.0 ], [ -109.590584348590994, 23.600913560613801, 0.0 ], [ -109.590594631474005, 23.6009268159575, 0.0 ], [ -109.590604951852995, 23.600940082592501, 0.0 ], [ -109.590615311188998, 23.600953359725999, 0.0 ], [ -109.590625712819005, 23.600966648954898, 0.0 ], [ -109.590636157210994, 23.600979948172, 0.0 ], [ -109.590646642297003, 23.600993251673898, 0.0 ], [ -109.590657173148998, 23.601006562956101, 0.0 ], [ -109.590667746582, 23.601019875074599, 0.0 ], [ -109.590678360129999, 23.6010331821326, 0.0 ], [ -109.590689033179999, 23.601046505422001, 0.0 ], [ -109.590699756386996, 23.601059830298901, 0.0 ], [ -109.590710530075, 23.601073154254401, 0.0 ], [ -109.590721358883997, 23.601086480141099, 0.0 ], [ -109.590732240437006, 23.6010998021173, 0.0 ], [ -109.590743177668003, 23.601113120830799, 0.0 ], [ -109.590754168011003, 23.601126430239798, 0.0 ], [ -109.590765225851996, 23.601139745194999, 0.0 ], [ -109.590776334797994, 23.601153042775302, 0.0 ], [ -109.590787512598993, 23.601166340890298, 0.0 ], [ -109.590798742621004, 23.6011796163538, 0.0 ], [ -109.590810052885999, 23.601192896782202, 0.0 ], [ -109.590821436883004, 23.601206173211299, 0.0 ], [ -109.590832860895006, 23.601219405366699, 0.0 ], [ -109.590844293383, 23.601232556202401, 0.0 ], [ -109.590855792647005, 23.6012456955178, 0.0 ], [ -109.590867311135995, 23.6012587726992, 0.0 ], [ -109.590874049172001, 23.601266375698899, 0.0 ], [ -109.590976806418993, 23.601411019278199, 0.0 ], [ -109.591085165562006, 23.6015521484365, 0.0 ], [ -109.591198985226001, 23.601689579019499, 0.0 ], [ -109.591318116908994, 23.601823131698598, 0.0 ], [ -109.591442405175002, 23.601952632204402, 0.0 ], [ -109.591571687861006, 23.602077911554812, 0.0 ], [ -109.591705796282, 23.602198806275101, 0.0 ], [ -109.591844555457996, 23.6023151586114, 0.0 ], [ -109.591987784333995, 23.602426816736799, 0.0 ], [ -109.592135296026996, 23.602533634949101, 0.0 ], [ -109.592286898059001, 23.6026354738616, 0.0 ], [ -109.592442392614998, 23.602732200584299, 0.0 ], [ -109.592601576800007, 23.602823688897999, 0.0 ], [ -109.592764242902007, 23.602909819418599, 0.0 ], [ -109.593638248386, 23.603353440912301, 0.0 ], [ -109.593780774359004, 23.603443166391401, 0.0 ], [ -109.593902132397005, 23.603556278079399, 0.0 ], [ -109.593997873985003, 23.603688629802001, 0.0 ], [ -109.594064489564005, 23.6038353701151, 0.0 ], [ -109.594121633124999, 23.6039455693017, 0.0 ], [ -109.593514120508004, 23.604628354673299, 0.0 ], [ -109.592648084846999, 23.605247760407, 0.0 ], [ -109.592629771470996, 23.605256505434699, 0.0 ], [ -109.592533340952002, 23.605114620804098, 0.0 ], [ -109.592425467336994, 23.6049799139283, 0.0 ], [ -109.592306776925994, 23.604853166857399, 0.0 ], [ -109.592177958817004, 23.604735115427609, 0.0 ], [ -109.592039760893996, 23.60462644499, 0.0 ], [ -109.591892985491995, 23.604527786432101, 0.0 ], [ -109.591738484735998, 23.604439712515699, 0.0 ], [ -109.591577155595999, 23.6043627345517, 0.0 ], [ -109.591409934675994, 23.604297299432801, 0.0 ], [ -109.591230658277993, 23.6042259859959, 0.0 ], [ -109.591059481493005, 23.604139406291001, 0.0 ], [ -109.590897930945005, 23.604038332483999, 0.0 ], [ -109.590747447400005, 23.603923666004601, 0.0 ], [ -109.590609372909995, 23.603796429506001, 0.0 ], [ -109.590484938849002, 23.6036577577431, 0.0 ], [ -109.590375254924993, 23.6035088874515, 0.0 ], [ -109.590281299292002, 23.603351146316999, 0.0 ], [ -109.590203909821994, 23.603185941134001, 0.0 ], [ -109.590143776632999, 23.603014745257902, 0.0 ], [ -109.590101435944007, 23.602839085465501, 0.0 ], [ -109.590077265288002, 23.602660528337399, 0.0 ], [ -109.590071480147998, 23.6024806662872, 0.0 ], [ -109.590055880033006, 23.602375096008799, 0.0 ], [ -109.590014920155994, 23.6022754616559, 0.0 ], [ -109.589950698348005, 23.602186866036, 0.0 ], [ -109.589866503786993, 23.6021138465936, 0.0 ], [ -109.589465720975994, 23.601857403615799, 0.0 ], [ -109.589395621619005, 23.6018003348129, 0.0 ], [ -109.589341741319004, 23.6017298755939, 0.0 ], [ -109.589307000351994, 23.601649844840299, 0.0 ] ] ] } },
{ "type": "Feature", "properties": { "Name": "Poligono C08F25", "description": null, "timestamp": null, "begin": null, "end": null, "altitudeMode": null, "tessellate": 1, "extrude": 0, "visibility": -1, "drawOrder": null, "icon": null }, "geometry": { "type": "Polygon", "coordinates": [ [ [ -109.589032872762004, 23.6027887009609, 0.0 ], [ -109.588760617868004, 23.6025750985951, 0.0 ], [ -109.588912547752997, 23.6024106493193, 0.0 ], [ -109.589185060247004, 23.602624453572101, 0.0 ], [ -109.589032872762004, 23.6027887009609, 0.0 ] ] ] } },
{ "type": "Feature", "properties": { "Name": "Poligono C08F41", "description": null, "timestamp": null, "begin": null, "end": null, "altitudeMode": null, "tessellate": 1, "extrude": 0, "visibility": -1, "drawOrder": null, "icon": null }, "geometry": { "type": "Polygon", "coordinates": [ [ [ -109.589093986463993, 23.604899369056, 0.0 ], [ -109.589645411846007, 23.6049698109647, 0.0 ], [ -109.591092106098003, 23.605412108939699, 0.0 ], [ -109.591336739457006, 23.605425536969999, 0.0 ], [ -109.591825780475006, 23.605453489801299, 0.0 ], [ -109.592065998820999, 23.6054091473734, 0.0 ], [ -109.592306217024998, 23.605364804565902, 0.0 ], [ -109.592463953057006, 23.605335687253799, 0.0 ], [ -109.592471878479998, 23.605332732372801, 0.0 ], [ -109.592377345445001, 23.605194716110098, 0.0 ], [ -109.592263191368005, 23.605054895341802, 0.0 ], [ -109.592136332338995, 23.604924704858799, 0.0 ], [ -109.591997720652003, 23.604805121926201, 0.0 ], [ -109.591848396816999, 23.604697044181108, 0.0 ], [ -109.591689481741994, 23.6046012828957, 0.0 ], [ -109.591522168324005, 23.6045185568879, 0.0 ], [ -109.591347712493004, 23.604449487126399, 0.0 ], [ -109.591180275227998, 23.604379215459598, 0.0 ], [ -109.591018899134994, 23.604297787471701, 0.0 ], [ -109.590864458081001, 23.604205644112401, 0.0 ], [ -109.590717788378001, 23.604103284356299, 0.0 ], [ -109.590579684245995, 23.6039912624998, 0.0 ], [ -109.590450893516007, 23.6038701851596, 0.0 ], [ -109.590332113580004, 23.603740707987399, 0.0 ], [ -109.589225184002004, 23.604450818052801, 0.0 ], [ -109.589183351990002, 23.6044743275008, 0.0 ], [ -109.589183351990002, 23.6044743275008, 0.0 ], [ -109.589207625300006, 23.6045216474601, 0.0 ], [ -109.589220543840995, 23.604572616049101, 0.0 ], [ -109.589221528522003, 23.6046249485847, 0.0 ], [ -109.589210535188997, 23.604676299242101, 0.0 ], [ -109.589188056609999, 23.6047243662067, 0.0 ], [ -109.589141419743996, 23.604800353082702, 0.0 ], [ -109.589113463800999, 23.604851723493699, 0.0 ], [ -109.589093986463993, 23.604899369056, 0.0 ], [ -109.589093986463993, 23.604899369056, 0.0 ] ] ] } },
{ "type": "Feature", "properties": { "Name": "Poligono C0AE3F", "description": null, "timestamp": null, "begin": null, "end": null, "altitudeMode": null, "tessellate": 1, "extrude": 0, "visibility": -1, "drawOrder": null, "icon": null }, "geometry": { "type": "Polygon", "coordinates": [ [ [ -109.588199554021998, 23.603732950047501, 0.0 ], [ -109.588148045816993, 23.603807999054201, 0.0 ], [ -109.588117628579994, 23.603892258653101, 0.0 ], [ -109.588110086740997, 23.603980785858699, 0.0 ], [ -109.588125862778995, 23.604068387321799, 0.0 ], [ -109.588164031253996, 23.604149923990999, 0.0 ], [ -109.588222353085996, 23.604220612590801, 0.0 ], [ -109.588297406901006, 23.604276306229998, 0.0 ], [ -109.588384789738996, 23.6043137376797, 0.0 ], [ -109.588479375351, 23.604330711046298, 0.0 ], [ -109.588575614931997, 23.6043262305955, 0.0 ], [ -109.588745394138002, 23.604314643348001, 0.0 ], [ -109.588914373416003, 23.604333732232899, 0.0 ], [ -109.589076088328, 23.604382766994899, 0.0 ], [ -109.589117768042996, 23.604407016485201, 0.0 ], [ -109.589153929543997, 23.604437884024598, 0.0 ], [ -109.589183351989007, 23.6044743275021, 0.0 ], [ -109.589225184000995, 23.604450818054101, 0.0 ], [ -109.590332076389004, 23.6037407318465, 0.0 ], [ -109.590236994566993, 23.603604475980799, 0.0 ], [ -109.590152745853004, 23.603462295104698, 0.0 ], [ -109.590079762849001, 23.603314919354201, 0.0 ], [ -109.590018420301007, 23.603163105539799, 0.0 ], [ -109.589969033174995, 23.603007633259502, 0.0 ], [ -109.589931855041002, 23.602849300895699, 0.0 ], [ -109.589907076770999, 23.6026889215149, 0.0 ], [ -109.589894825559995, 23.602527318692101, 0.0 ], [ -109.589895199969007, 23.6024737617998, 0.0 ], [ -109.589882798271006, 23.602405468725301, 0.0 ], [ -109.589853963972999, 23.602341527350699, 0.0 ], [ -109.589810190080996, 23.602285248433098, 0.0 ], [ -109.589753743133997, 23.602239545978708, 0.0 ], [ -109.589753743097006, 23.602239545954902, 0.0 ], [ -109.589810190924993, 23.602285249292599, 0.0 ], [ -109.589853965219007, 23.6023415294136, 0.0 ], [ -109.589882799338994, 23.602405472149002, 0.0 ], [ -109.589895200236995, 23.602473766557001, 0.0 ], [ -109.589895200271002, 23.602473761760699, 0.0 ], [ -109.589882769316006, 23.602405374925102, 0.0 ], [ -109.589853861243995, 23.602341356849301, 0.0 ], [ -109.589809977073003, 23.602285031548199, 0.0 ], [ -109.589753395420004, 23.602239323600202, 0.0 ], [ -109.589365154855003, 23.601990944434402, 0.0 ], [ -109.589325769724994, 23.601963374160398, 0.0 ], [ -109.589222457895005, 23.602075200214099, 0.0 ], [ -109.588912547752003, 23.6024106493205, 0.0 ], [ -109.589185060245995, 23.602624453573402, 0.0 ], [ -109.589032872760995, 23.602788700962201, 0.0 ], [ -109.589055375537995, 23.602806166475801, 0.0 ], [ -109.588199554021998, 23.603732950047501, 0.0 ] ] ] } },
{ "type": "Feature", "properties": { "Name": "Poligono C08F60", "description": null, "timestamp": null, "begin": null, "end": null, "altitudeMode": null, "tessellate": 1, "extrude": 0, "visibility": -1, "drawOrder": null, "icon": null }, "geometry": { "type": "Polygon", "coordinates": [ [ [ -109.586418959046995, 23.599622350393201, 0.0 ], [ -109.586322151041998, 23.5996482779674, 0.0 ], [ -109.586220266590004, 23.599676908873501, 0.0 ], [ -109.586150805176004, 23.5996928216173, 0.0 ], [ -109.586128027011995, 23.599697372476999, 0.0 ], [ -109.586070469305, 23.599708871940301, 0.0 ], [ -109.585983384396997, 23.599722814886999, 0.0 ], [ -109.585872795924004, 23.599737596073101, 0.0 ], [ -109.585795644460006, 23.5997425378063, 0.0 ], [ -109.585721783319997, 23.599747138847899, 0.0 ], [ -109.585708142350001, 23.5997475081689, 0.0 ], [ -109.585673995858997, 23.599748432658998, 0.0 ], [ -109.585629175848993, 23.5997673347613, 0.0 ], [ -109.585603041111, 23.599794647839001, 0.0 ], [ -109.585592082608997, 23.599820489614501, 0.0 ], [ -109.585588584269999, 23.599843140185801, 0.0 ], [ -109.585590826214002, 23.599836819532712, 0.0 ], [ -109.585594611988995, 23.599831158465399, 0.0 ], [ -109.585599731056007, 23.5998264718142, 0.0 ], [ -109.585605898726996, 23.599823020218999, 0.0 ], [ -109.585612771995997, 23.5998209956342, 0.0 ], [ -109.585619968619994, 23.599820510653501, 0.0 ], [ -109.585805030797005, 23.5998097388864, 0.0 ], [ -109.585984733648999, 23.599767593582499, 0.0 ], [ -109.585988537177002, 23.5997661962497, 0.0 ], [ -109.586029421421998, 23.599755733203899, 0.0 ], [ -109.586071791148996, 23.599753624680499, 0.0 ], [ -109.586113660305998, 23.599759969515599, 0.0 ], [ -109.586153066302003, 23.599774470299401, 0.0 ], [ -109.586188162007005, 23.599796447317502, 0.0 ], [ -109.586656745379997, 23.600164099977398, 0.0 ], [ -109.586734288507998, 23.600084007558301, 0.0 ], [ -109.586786342769003, 23.6001065351081, 0.0 ], [ -109.586842661597004, 23.600117258819701, 0.0 ], [ -109.586900141450997, 23.600115587745002, 0.0 ], [ -109.586955614811998, 23.6001016139707, 0.0 ], [ -109.587006024730002, 23.600076107543298, 0.0 ], [ -109.587048593290007, 23.6000404740346, 0.0 ], [ -109.587080974692, 23.599996677084199, 0.0 ], [ -109.587101384519002, 23.5999471301892, 0.0 ], [ -109.587108698072996, 23.599894563703309, 0.0 ], [ -109.587103040816999, 23.5998440473066, 0.0 ], [ -109.587085273963993, 23.599795974343099, 0.0 ], [ -109.587056296566999, 23.599752777401001, 0.0 ], [ -109.587192842698997, 23.5996413990555, 0.0 ], [ -109.587346306030994, 23.599550632692299, 0.0 ], [ -109.587513056906005, 23.599482625070902, 0.0 ], [ -109.587689151418004, 23.5994389846716, 0.0 ], [ -109.587854558310994, 23.599414557921701, 0.0 ], [ -109.587879637952994, 23.5994081607409, 0.0 ], [ -109.587902342204998, 23.599396442404899, 0.0 ], [ -109.587921364056001, 23.599380077501699, 0.0 ], [ -109.587935608478006, 23.599360008107599, 0.0 ], [ -109.587944255465999, 23.599337389554499, 0.0 ], [ -109.587946807245004, 23.599313523920401, 0.0 ], [ -109.587943116917998, 23.599289785073701, 0.0 ], [ -109.587933396931007, 23.599267539582801, 0.0 ], [ -109.587918206834004, 23.599248068048201, 0.0 ], [ -109.587898421071998, 23.599232491381901, 0.0 ], [ -109.587875178649, 23.5992217062809, 0.0 ], [ -109.587693593650002, 23.599195990276709, 0.0 ], [ -109.587509887785998, 23.5991941594772, 0.0 ], [ -109.587327741809005, 23.599216250559799, 0.0 ], [ -109.587150805218002, 23.5992618209001, 0.0 ], [ -109.587045342619007, 23.599303338663098, 0.0 ], [ -109.586946073288004, 23.5993562589709, 0.0 ], [ -109.586835595799002, 23.5994251666623, 0.0 ], [ -109.586722286058006, 23.599490051177899, 0.0 ], [ -109.586576318905003, 23.5995672922202, 0.0 ], [ -109.586418959046995, 23.599622350393201, 0.0 ] ] ] } },
{ "type": "Feature", "properties": { "Name": "Poligono C08F28", "description": null, "timestamp": null, "begin": null, "end": null, "altitudeMode": null, "tessellate": 1, "extrude": 0, "visibility": -1, "drawOrder": null, "icon": null }, "geometry": { "type": "Polygon", "coordinates": [ [ [ -109.584139110034002, 23.599029846771199, 0.0 ], [ -109.584263406142, 23.599165986302712, 0.0 ], [ -109.584361350812003, 23.5992693559507, 0.0 ], [ -109.584461073881002, 23.599371271383799, 0.0 ], [ -109.584562549932002, 23.5994717066222, 0.0 ], [ -109.584548707272006, 23.5997008123807, 0.0 ], [ -109.584548707272006, 23.5997008123807, 0.0 ], [ -109.584535904796994, 23.5999127013073, 0.0 ], [ -109.584523102261997, 23.600124590225199, 0.0 ], [ -109.584523102261997, 23.600124590225199, 0.0 ], [ -109.584510299665993, 23.600336479134601, 0.0 ], [ -109.584497497010005, 23.600548368035199, 0.0 ], [ -109.584497497010005, 23.600548368035199, 0.0 ], [ -109.584484694294005, 23.600760256927298, 0.0 ], [ -109.584471891516998, 23.600972145810701, 0.0 ], [ -109.584459088680006, 23.601184034685499, 0.0 ], [ -109.584446285781993, 23.6013959235516, 0.0 ], [ -109.584433482823997, 23.601607812409199, 0.0 ], [ -109.584420679806001, 23.601819701258009, 0.0 ], [ -109.584407876727994, 23.602031590098299, 0.0 ], [ -109.584407876727994, 23.602031590098299, 0.0 ], [ -109.584391413665003, 23.602302079908299, 0.0 ], [ -109.584375089651999, 23.602572577410299, 0.0 ], [ -109.584524953338004, 23.602748157089302, 0.0 ], [ -109.584684353821004, 23.602919504233, 0.0 ], [ -109.584876135445001, 23.6031248321239, 0.0 ], [ -109.585087058609005, 23.603360981486102, 0.0 ], [ -109.585100753538001, 23.603380778260199, 0.0 ], [ -109.585108511184998, 23.6034031406368, 0.0 ], [ -109.585109817570995, 23.603426587018799, 0.0 ], [ -109.585104586138996, 23.6034495639882, 0.0 ], [ -109.585093163490001, 23.603470549227101, 0.0 ], [ -109.585076306418998, 23.6034881523771, 0.0 ], [ -109.584857547791003, 23.603659951381999, 0.0 ], [ -109.584857547791003, 23.603659951381999, 0.0 ], [ -109.584630075890999, 23.603838592401701, 0.0 ], [ -109.584611909310993, 23.603849881659201, 0.0 ], [ -109.584591467880998, 23.6038571524332, 0.0 ], [ -109.584569781571005, 23.603860038375402, 0.0 ], [ -109.584547943076004, 23.603858394073612, 0.0 ], [ -109.584527052761999, 23.603852302378399, 0.0 ], [ -109.584508163215006, 23.603842070228801, 0.0 ], [ -109.584492226212006, 23.603828213186102, 0.0 ], [ -109.584284465121996, 23.603594020036802, 0.0 ], [ -109.584284465121996, 23.603594020036802, 0.0 ], [ -109.584092683820003, 23.603388691438202, 0.0 ], [ -109.583933306172, 23.6032173258087, 0.0 ], [ -109.583933306172, 23.6032173258087, 0.0 ], [ -109.583773910603995, 23.6030459747364, 0.0 ], [ -109.583698703381003, 23.602933565173899, 0.0 ], [ -109.583642868588996, 23.6028119439653, 0.0 ], [ -109.583642868588996, 23.6028119439653, 0.0 ], [ -109.583605679632001, 23.602672775841398, 0.0 ], [ -109.583593845717004, 23.602529865649899, 0.0 ], [ -109.583593845717004, 23.602529865649899, 0.0 ], [ -109.583607265539996, 23.602307282899499, 0.0 ], [ -109.583620726353999, 23.602084702413698, 0.0 ], [ -109.583634166573006, 23.601862120781199, 0.0 ], [ -109.583647616990007, 23.601639539707801, 0.0 ], [ -109.583661067340003, 23.601416958624799, 0.0 ], [ -109.583674548085995, 23.601194240324109, 0.0 ], [ -109.583688028766005, 23.600971522014, 0.0 ], [ -109.583701509378997, 23.600748803694099, 0.0 ], [ -109.583714989924999, 23.600526085364908, 0.0 ], [ -109.583728470405006, 23.6003033670261, 0.0 ], [ -109.583741950817, 23.6000806486777, 0.0 ], [ -109.583755431162999, 23.5998579303197, 0.0 ], [ -109.583768911441993, 23.5996352119523, 0.0 ], [ -109.583782391653997, 23.599412493575201, 0.0 ], [ -109.583795871798998, 23.599189775188499, 0.0 ], [ -109.583825759557996, 23.598695966943598, 0.0 ], [ -109.583835771490001, 23.598695683959399, 0.0 ], [ -109.583845608925998, 23.598697422242001, 0.0 ], [ -109.583854797209995, 23.5987010979192, 0.0 ], [ -109.583862893006994, 23.598706533639302, 0.0 ], [ -109.583869505691993, 23.598713467128501, 0.0 ], [ -109.583957584583004, 23.598820214908699, 0.0 ], [ -109.584047459988, 23.598925683347499, 0.0 ], [ -109.584139110034002, 23.599029846771199, 0.0 ] ] ] } },
{ "type": "Feature", "properties": { "Name": "Poligono C0AE40", "description": null, "timestamp": null, "begin": null, "end": null, "altitudeMode": null, "tessellate": 1, "extrude": 0, "visibility": -1, "drawOrder": null, "icon": null }, "geometry": { "type": "Polygon", "coordinates": [ [ [ -109.588803540393997, 23.599536673174899, 0.0 ], [ -109.588919158086, 23.599657436976699, 0.0 ], [ -109.58902655384, 23.599784484669701, 0.0 ], [ -109.589125326401003, 23.599917341605799, 0.0 ], [ -109.589215106728005, 23.600055511431599, 0.0 ], [ -109.589295559370001, 23.600198477943302, 0.0 ], [ -109.589386449394993, 23.600350093158401, 0.0 ], [ -109.589495451741996, 23.600491204747801, 0.0 ], [ -109.589498968003994, 23.600496333640901, 0.0 ], [ -109.589501157602996, 23.600502055015198, 0.0 ], [ -109.589501910734995, 23.6005080819547, 0.0 ], [ -109.589501189632003, 23.600514112220001, 0.0 ], [ -109.589499030455002, 23.6005198434049, 0.0 ], [ -109.589495541483004, 23.600524988101299, 0.0 ], [ -109.589490897681003, 23.6005292883126, 0.0 ], [ -109.589356860801999, 23.600645877297602, 0.0 ], [ -109.589244962690998, 23.600780847247702, 0.0 ], [ -109.589158128231006, 23.6009306702936, 0.0 ], [ -109.589098627205999, 23.601091430322199, 0.0 ], [ -109.589068014975993, 23.601258925333202, 0.0 ], [ -109.589066538615995, 23.601265375112199, 0.0 ], [ -109.589063415669997, 23.601271305395208, 0.0 ], [ -109.589058831019997, 23.6012763650977, 0.0 ], [ -109.589053056088005, 23.601280254675299, 0.0 ], [ -109.589011393262993, 23.6013081876219, 0.0 ], [ -109.588978112369006, 23.601344432849299, 0.0 ], [ -109.588955114276999, 23.601386920183799, 0.0 ], [ -109.588943712551, 23.601433222927302, 0.0 ], [ -109.588944558422, 23.601480696458999, 0.0 ], [ -109.588957603591993, 23.601526629284699, 0.0 ], [ -109.588982102984005, 23.601568397906401, 0.0 ], [ -109.589016657301997, 23.601603616666299, 0.0 ], [ -109.589059292944, 23.601630274006599, 0.0 ], [ -109.589107574734001, 23.601646847363099, 0.0 ], [ -109.589113487236006, 23.6016487980649, 0.0 ], [ -109.589118815229995, 23.601651861528801, 0.0 ], [ -109.589123315582, 23.601655897958, 0.0 ], [ -109.589126782923003, 23.601660723155401, 0.0 ], [ -109.589129059026007, 23.601666116929799, 0.0 ], [ -109.589136717461002, 23.601692239888202, 0.0 ], [ -109.589179058593999, 23.601793958708299, 0.0 ], [ -109.589242966710998, 23.6018856142346, 0.0 ], [ -109.589325769726003, 23.601963374159102, 0.0 ], [ -109.588912547752997, 23.6024106493193, 0.0 ], [ -109.588760617703997, 23.602575098705799, 0.0 ], [ -109.589032872762004, 23.602788700961, 0.0 ], [ -109.588994804422995, 23.6028303852028, 0.0 ], [ -109.588722711613002, 23.6026161270449, 0.0 ], [ -109.587542377831994, 23.6038937028442, 0.0 ], [ -109.587163893500005, 23.6035967519941, 0.0 ], [ -109.587215176442996, 23.603541245038102, 0.0 ], [ -109.587559464943993, 23.603168596864499, 0.0 ], [ -109.587052294241005, 23.6027706789931, 0.0 ], [ -109.587061266774001, 23.602755219865699, 0.0 ], [ -109.587014339456005, 23.602718401257398, 0.0 ], [ -109.587005366919996, 23.602733860381999, 0.0 ], [ -109.586763114863999, 23.6025437917957, 0.0 ], [ -109.586752326889993, 23.602537674156199, 0.0 ], [ -109.586738774864997, 23.602533161318402, 0.0 ], [ -109.586724509945995, 23.6025312837521, 0.0 ], [ -109.586710128861, 23.602532119999399, 0.0 ], [ -109.586696233195994, 23.602535635078301, 0.0 ], [ -109.586683404232005, 23.602541681946899, 0.0 ], [ -109.586672606619999, 23.602549690223999, 0.0 ], [ -109.585942811593995, 23.603339590475901, 0.0 ], [ -109.585188177622996, 23.602747744126699, 0.0 ], [ -109.585700523523997, 23.602193205206198, 0.0 ], [ -109.585862167236996, 23.6023200313101, 0.0 ], [ -109.586913295239995, 23.601182320556799, 0.0 ], [ -109.586948049445994, 23.601165926116199, 0.0 ], [ -109.586976062456003, 23.6011543108363, 0.0 ], [ -109.587005866656, 23.601143306672899, 0.0 ], [ -109.587026458333995, 23.6011367918471, 0.0 ], [ -109.587066386936002, 23.6011262539905, 0.0 ], [ -109.587094752276002, 23.601120651303201, 0.0 ], [ -109.587120709735004, 23.601116575955999, 0.0 ], [ -109.587149337667995, 23.601112989122399, 0.0 ], [ -109.587171354614995, 23.601110658301401, 0.0 ], [ -109.587196886607003, 23.601107514874101, 0.0 ], [ -109.587213346612998, 23.601104582116498, 0.0 ], [ -109.587231416476996, 23.601100142407699, 0.0 ], [ -109.587243427605998, 23.601094002339799, 0.0 ], [ -109.587251398665998, 23.601086049907, 0.0 ], [ -109.587256087498005, 23.601075288082299, 0.0 ], [ -109.587262214345998, 23.601048238542202, 0.0 ], [ -109.587268271957996, 23.601035348745, 0.0 ], [ -109.587276456327004, 23.601024824822399, 0.0 ], [ -109.587283740789005, 23.601015627989199, 0.0 ], [ -109.587288725649003, 23.601007827931799, 0.0 ], [ -109.587290827184006, 23.600952000661099, 0.0 ], [ -109.587279676804002, 23.600919869765399, 0.0 ], [ -109.587261187186996, 23.600890755250202, 0.0 ], [ -109.587236249401997, 23.600866060221598, 0.0 ], [ -109.58720414858, 23.600845429386901, 0.0 ], [ -109.587168166880005, 23.6008312433136, 0.0 ], [ -109.587106634340003, 23.6008056800666, 0.0 ], [ -109.587053595059999, 23.6007672110538, 0.0 ], [ -109.587017093816996, 23.6007268538293, 0.0 ], [ -109.586988779169999, 23.600681254145499, 0.0 ], [ -109.586929014990005, 23.600529978467709, 0.0 ], [ -109.586918290377994, 23.600507413124699, 0.0 ], [ -109.586902294907006, 23.600487675120299, 0.0 ], [ -109.58688186114, 23.600471791811501, 0.0 ], [ -109.586858052647003, 23.600460589919301, 0.0 ], [ -109.586832108655997, 23.600454652498499, 0.0 ], [ -109.586784551963007, 23.600445276648799, 0.0 ], [ -109.586740857311, 23.600425599393301, 0.0 ], [ -109.586703608746006, 23.600396784421498, 0.0 ], [ -109.586645461930999, 23.600339746555701, 0.0 ], [ -109.586554873732993, 23.600268670994801, 0.0 ], [ -109.586733730511995, 23.600083934372702, 0.0 ], [ -109.586785784772999, 23.6001064619226, 0.0 ], [ -109.586842103601001, 23.600117185634399, 0.0 ], [ -109.586899583454993, 23.600115514559999, 0.0 ], [ -109.586955056815995, 23.600101540785801, 0.0 ], [ -109.587005466733999, 23.600076034358601, 0.0 ], [ -109.587048035294004, 23.600040400850101, 0.0 ], [ -109.587080416695997, 23.5999966038998, 0.0 ], [ -109.587100826523994, 23.599947057004901, 0.0 ], [ -109.587108140078001, 23.599894490519102, 0.0 ], [ -109.587102482822004, 23.599843974122301, 0.0 ], [ -109.587084715969993, 23.599795901158799, 0.0 ], [ -109.587055738573, 23.599752704216598, 0.0 ], [ -109.587192284704997, 23.599641325871598, 0.0 ], [ -109.587345748036995, 23.599550559509002, 0.0 ], [ -109.587512498913, 23.599482551888219, 0.0 ], [ -109.587688593424005, 23.599438911489599, 0.0 ], [ -109.587860616868994, 23.5994135525691, 0.0 ], [ -109.587886678209998, 23.599405217118498, 0.0 ], [ -109.587909614650002, 23.599391092225201, 0.0 ], [ -109.587927942354995, 23.599372091674098, 0.0 ], [ -109.587940475650996, 23.5993494446721, 0.0 ], [ -109.587946403719997, 23.599324616326001, 0.0 ], [ -109.587945343062003, 23.59929921286, 0.0 ], [ -109.588030279707993, 23.599299294861598, 0.0 ], [ -109.588218662496004, 23.599307461540999, 0.0 ], [ -109.588381248591006, 23.5993210865504, 0.0 ], [ -109.588537296352001, 23.599365301332, 0.0 ], [ -109.588680104529004, 23.5994382071516, 0.0 ], [ -109.588803540393997, 23.599536673174899, 0.0 ] ] ] } }
]
}
