{
"type": "FeatureCollection",
"name": "3ra modf Marina2",
"crs": { "type": "name", "properties": { "name": "urn:ogc:def:crs:OGC:1.3:CRS84" } },
"features": [
{ "type": "Feature", "properties": { "Name": "Ruta C08F0E", "description": null, "timestamp": null, "begin": null, "end": null, "altitudeMode": null, "tessellate": 1, "extrude": 0, "visibility": -1, "drawOrder": null, "icon": null }, "geometry": { "type": "LineString", "coordinates": [ [ -109.584439035944996, 23.608245462575699, 0.0 ], [ -109.584660627044997, 23.607846409981398, 0.0 ], [ -109.584722557191, 23.607701308939099, 0.0 ], [ -109.584772110657994, 23.607552225189401, 0.0 ], [ -109.584805090534005, 23.607419194154499, 0.0 ], [ -109.584828211282002, 23.607284409414898, 0.0 ], [ -109.584721940742, 23.6071368333387, 0.0 ], [ -109.584614494237996, 23.606989982183901, 0.0 ], [ -109.584505877598005, 23.606843863908601, 0.0 ], [ -109.584396096711998, 23.606698486430801, 0.0 ], [ -109.584285157533003, 23.606553857628501, 0.0 ], [ -109.584173066077, 23.606409985339099, 0.0 ], [ -109.584059828421005, 23.606266877359008, 0.0 ], [ -109.583945450707006, 23.606124541443101, 0.0 ], [ -109.583829939135001, 23.6059829853045, 0.0 ], [ -109.583713299969006, 23.605842216613901, 0.0 ], [ -109.583595539534002, 23.605702242999399, 0.0 ], [ -109.583476664214004, 23.605563072045999, 0.0 ], [ -109.583356680454997, 23.6054247112951, 0.0 ], [ -109.583235594762002, 23.605287168244299, 0.0 ], [ -109.583113413700005, 23.605150450346599, 0.0 ], [ -109.582990143893994, 23.605014565010599, 0.0 ], [ -109.582865792026993, 23.6048795195995, 0.0 ], [ -109.582740364840006, 23.6047453214311, 0.0 ], [ -109.582613869133993, 23.6046119777772, 0.0 ], [ -109.582486311766999, 23.604479495863199, 0.0 ], [ -109.582357699653002, 23.604347882868101, 0.0 ], [ -109.582228039765994, 23.6042171459233, 0.0 ], [ -109.582097339133995, 23.604087292113199, 0.0 ], [ -109.581965604843006, 23.603958328473901, 0.0 ], [ -109.581832844033997, 23.6038302619936, 0.0 ], [ -109.581699063905006, 23.603703099611501, 0.0 ], [ -109.581564271706995, 23.603576848218101, 0.0 ], [ -109.581428474747, 23.603451514654399, 0.0 ], [ -109.581291680386997, 23.6033271057116, 0.0 ], [ -109.581153896041997, 23.6032036281308, 0.0 ], [ -109.581015129180997, 23.6030810886026, 0.0 ], [ -109.580875387324994, 23.6029594937669, 0.0 ], [ -109.580734678051002, 23.602838850212201, 0.0 ], [ -109.580593008983996, 23.602719164475399, 0.0 ], [ -109.580450387804007, 23.602600443041698, 0.0 ], [ -109.580063680544001, 23.6022871159681, 0.0 ], [ -109.579861837628997, 23.6021284729146, 0.0 ], [ -109.579673251265007, 23.6019831631838, 0.0 ], [ -109.579433071598004, 23.6018020695521, 0.0 ], [ -109.579607780027004, 23.601611194917901, 0.0 ], [ -109.579715519328005, 23.601576343122499, 0.0 ], [ -109.579800171556997, 23.6015517651498, 0.0 ], [ -109.579881189204997, 23.601553603238401, 0.0 ], [ -109.580140707645995, 23.601616342627299, 0.0 ], [ -109.581561191877, 23.602672593316999, 0.0 ], [ -109.581702941013006, 23.602653558713602, 0.0 ], [ -109.582119582724999, 23.599865946893502, 0.0 ], [ -109.582249963622004, 23.597981047753098, 0.0 ], [ -109.582254023874995, 23.597945660368602, 0.0 ], [ -109.582252038486004, 23.597895074709601, 0.0 ], [ -109.582253832717001, 23.5978416808044, 0.0 ], [ -109.582378568679005, 23.597841519782101, 0.0 ], [ -109.582502046320997, 23.5978578073892, 0.0 ], [ -109.582686915341995, 23.5978902567803, 0.0 ], [ -109.582868190631004, 23.597936845270599, 0.0 ], [ -109.582874990411995, 23.597939811922899, 0.0 ], [ -109.582880750445995, 23.597944271944201, 0.0 ], [ -109.582885093480996, 23.597949933225799, 0.0 ], [ -109.582887735067999, 23.5979564249829, 0.0 ], [ -109.582888502196994, 23.597963322038201, 0.0 ], [ -109.582884364050003, 23.598109028403901, 0.0 ], [ -109.582721284415001, 23.598058350983301, 0.0 ], [ -109.582555110436999, 23.5980170845543, 0.0 ], [ -109.582499161355997, 23.5992427056634, 0.0 ], [ -109.582488889993002, 23.599467112842898, 0.0 ], [ -109.582456204929997, 23.599917286818702, 0.0 ], [ -109.582439925499003, 23.600142554467901, 0.0 ], [ -109.582439849557005, 23.6001425497961, 0.0 ], [ -109.582423755150998, 23.600364781013301, 0.0 ], [ -109.582321955718001, 23.601489452980701, 0.0 ], [ -109.582653960604006, 23.601514983400701, 0.0 ], [ -109.582634059894005, 23.601739803508899, 0.0 ], [ -109.582302028219004, 23.601714562296799, 0.0 ], [ -109.582277900665005, 23.6019948088367, 0.0 ], [ -109.582227285702004, 23.6028308511777, 0.0 ], [ -109.582257886746007, 23.6031773936019, 0.0 ], [ -109.582305670487997, 23.603314362760301, 0.0 ], [ -109.582373198865, 23.603444082003499, 0.0 ], [ -109.582459235898995, 23.6035641613495, 0.0 ], [ -109.582562092013006, 23.603672425520202, 0.0 ], [ -109.582718899821003, 23.603843218456699, 0.0 ], [ -109.582840677245997, 23.603971788060608, 0.0 ], [ -109.583032769466001, 23.604184553726501, 0.0 ], [ -109.583236198931004, 23.604396805258698, 0.0 ], [ -109.584136919461002, 23.605374498696399, 0.0 ], [ -109.584393457318996, 23.6056403438457, 0.0 ], [ -109.584412524656003, 23.605654925898708, 0.0 ], [ -109.584434953255993, 23.605664631259408, 0.0 ], [ -109.584459307312997, 23.6056688386209, 0.0 ], [ -109.584484027754996, 23.605667278640801, 0.0 ], [ -109.584507532057003, 23.605660051184099, 0.0 ], [ -109.584528315547004, 23.605647618929812, 0.0 ], [ -109.584528316258996, 23.6056476183747, 0.0 ], [ -109.584975529613004, 23.605298634316998, 0.0 ], [ -109.584993003402005, 23.605281222108299, 0.0 ], [ -109.585005003749998, 23.6052602416576, 0.0 ], [ -109.585010716243005, 23.605237116828299, 0.0 ], [ -109.585009753199003, 23.605213417014099, 0.0 ], [ -109.585002179979, 23.605190750629902, 0.0 ], [ -109.584988510551995, 23.6051706559549, 0.0 ], [ -109.584733733449994, 23.604908019894101, 0.0 ], [ -109.583315937121995, 23.603376924384101, 0.0 ], [ -109.583160009886001, 23.603205522359801, 0.0 ], [ -109.583102337125993, 23.603131676152699, 0.0 ], [ -109.583074615583001, 23.603093702091499, 0.0 ], [ -109.583056978696007, 23.6030509179955, 0.0 ], [ -109.583008445119006, 23.602875159947999, 0.0 ], [ -109.583022084899, 23.602652170004198, 0.0 ], [ -109.583022084899, 23.602652170004198, 0.0 ], [ -109.583062939566005, 23.6019828516364, 0.0 ], [ -109.583081442384, 23.6017743765529, 0.0 ], [ -109.582750372337003, 23.601748645468799, 0.0 ], [ -109.582771140044002, 23.601523980656498, 0.0 ], [ -109.583102029423998, 23.601549414456109, 0.0 ], [ -109.583204943273998, 23.600424822006499, 0.0 ], [ -109.583221867660995, 23.600192543070801, 0.0 ], [ -109.583221867660995, 23.600192543070801, 0.0 ], [ -109.583270951783007, 23.599516448996209, 0.0 ], [ -109.583281734888999, 23.5992829488554, 0.0 ], [ -109.583281734888999, 23.5992829488554, 0.0 ], [ -109.583291920026994, 23.599060076534801, 0.0 ], [ -109.583291920026994, 23.599060076534801, 0.0 ], [ -109.583312264853006, 23.598614346642801, 0.0 ], [ -109.583326429674003, 23.598304136387799, 0.0 ], [ -109.583179981005003, 23.598229378057699, 0.0 ], [ -109.583028836668007, 23.5981630304133, 0.0 ], [ -109.582999315547994, 23.598151286319801, 0.0 ], [ -109.583006811424994, 23.598022046517698, 0.0 ], [ -109.583007995425007, 23.5980156493384, 0.0 ], [ -109.583010796322, 23.598009695191799, 0.0 ], [ -109.583015053395997, 23.598004525735899, 0.0 ], [ -109.583020522368997, 23.598000437602099, 0.0 ], [ -109.583026889424005, 23.5979976653737, 0.0 ], [ -109.583033789208997, 23.5979963681255, 0.0 ], [ -109.583040825802996, 23.5979966202955, 0.0 ], [ -109.583047595438003, 23.597998407413801, 0.0 ], [ -109.583204869702996, 23.598066232502401, 0.0 ], [ -109.583355992839998, 23.598145044559299, 0.0 ], [ -109.583500062802997, 23.598234373168602, 0.0 ], [ -109.583636219644006, 23.5983336851417, 0.0 ], [ -109.583762329411996, 23.598439768760599, 0.0 ], [ -109.583883542294004, 23.5985505943924, 0.0 ], [ -109.583999648496999, 23.598665970234901, 0.0 ], [ -109.584110447064006, 23.598785696610602, 0.0 ], [ -109.584132191910996, 23.598815974794199, 0.0 ], [ -109.584146925664996, 23.598849649307901, 0.0 ], [ -109.584154052846998, 23.598885359177999, 0.0 ], [ -109.584153285401001, 23.598921661169399, 0.0 ], [ -109.584139110034002, 23.599029846771199, 0.0 ], [ -109.584047544059999, 23.5989257804357, 0.0 ], [ -109.583957749421003, 23.598820411477899, 0.0 ], [ -109.583869747931004, 23.598713765499799, 0.0 ], [ -109.583863137197994, 23.598706731492999, 0.0 ], [ -109.583855010188003, 23.5987012088979, 0.0 ], [ -109.583845764554994, 23.598697467933501, 0.0 ], [ -109.583835852682995, 23.598695691644298, 0.0 ], [ -109.583825759557996, 23.598695966943598, 0.0 ], [ -109.583661067340003, 23.601416958624799, 0.0 ], [ -109.583634166573006, 23.601862120781199, 0.0 ], [ -109.583634166503998, 23.601862121930999, 0.0 ], [ -109.583620726285005, 23.602084703563499, 0.0 ], [ -109.583607265262003, 23.6023072874987, 0.0 ], [ -109.583593845717004, 23.602529865649899, 0.0 ], [ -109.583604795678994, 23.602667210562299, 0.0 ], [ -109.583639056371993, 23.6028012577239, 0.0 ], [ -109.583695774608003, 23.602928668711499, 0.0 ], [ -109.583773537888007, 23.603046270365301, 0.0 ], [ -109.583933305222999, 23.603217324788201, 0.0 ], [ -109.584092663614001, 23.603388669805099, 0.0 ], [ -109.584284465121996, 23.603594020036802, 0.0 ], [ -109.584492226212006, 23.603828213186102, 0.0 ], [ -109.584508163215006, 23.603842070228801, 0.0 ], [ -109.584527052761999, 23.603852302378399, 0.0 ], [ -109.584547943076004, 23.603858394073612, 0.0 ], [ -109.584569781571005, 23.603860038375402, 0.0 ], [ -109.584591467880998, 23.6038571524332, 0.0 ], [ -109.584611909310993, 23.603849881659201, 0.0 ], [ -109.584630075890999, 23.603838592401701, 0.0 ], [ -109.585076306418998, 23.6034881523771, 0.0 ], [ -109.585093173588007, 23.603470535256999, 0.0 ], [ -109.585104598035997, 23.6034495322439, 0.0 ], [ -109.585109821802007, 23.6034265368008, 0.0 ], [ -109.585108498313005, 23.603403074578999, 0.0 ], [ -109.585100715381003, 23.603380702198301, 0.0 ], [ -109.585086989374005, 23.6033609039712, 0.0 ], [ -109.584875929624999, 23.6031246016877, 0.0 ], [ -109.584684372861005, 23.602919524617999, 0.0 ], [ -109.584524569685996, 23.6027477076053, 0.0 ], [ -109.584375089651999, 23.602572577410299, 0.0 ], [ -109.584391414055005, 23.602302073495402, 0.0 ], [ -109.584407876727994, 23.602031590098299, 0.0 ], [ -109.584562549932002, 23.5994717066222, 0.0 ], [ -109.584461234667998, 23.599371433086301, 0.0 ], [ -109.584361666746005, 23.5992696840419, 0.0 ], [ -109.584263871461999, 23.599166485343702, 0.0 ], [ -109.584263871461999, 23.599166485343702, 0.0 ], [ -109.584281586250995, 23.5991492729272, 0.0 ], [ -109.584303215500995, 23.599136409352202, 0.0 ], [ -109.584327532212995, 23.5991286243536, 0.0 ], [ -109.584353156926994, 23.599126359564899, 0.0 ], [ -109.584378635986994, 23.5991297434649, 0.0 ], [ -109.584697976627993, 23.599450897248609, 0.0 ], [ -109.584834046755006, 23.599554822568301, 0.0 ], [ -109.584985441694997, 23.599638841749599, 0.0 ], [ -109.585148761360003, 23.599701067837699, 0.0 ], [ -109.585320337829998, 23.599740103316499, 0.0 ], [ -109.585496317733998, 23.599755071497501, 0.0 ], [ -109.585500945918, 23.599755940239099, 0.0 ], [ -109.585505214161998, 23.5997578041552, 0.0 ], [ -109.585508874560006, 23.599760554987, 0.0 ], [ -109.585511714511995, 23.599764032962501, 0.0 ], [ -109.585513569068993, 23.599768036076402, 0.0 ], [ -109.585514330517, 23.5997723318224, 0.0 ], [ -109.585513954627999, 23.5997766706978, 0.0 ], [ -109.585482074460998, 23.5999212599231, 0.0 ], [ -109.585482074460998, 23.5999212599231, 0.0 ], [ -109.585482074460998, 23.5999212599231, 0.0 ], [ -109.585459408700999, 23.5999201393075, 0.0 ], [ -109.585079112100999, 23.5998460572469, 0.0 ], [ -109.585069924844007, 23.5998454913016, 0.0 ], [ -109.585060750045997, 23.599846208647701, 0.0 ], [ -109.585047915111005, 23.600073439273299, 0.0 ], [ -109.585035291970001, 23.600301927897601, 0.0 ], [ -109.585022788792998, 23.600530412012699, 0.0 ], [ -109.585005611746993, 23.600838533928499, 0.0 ], [ -109.584940255462996, 23.6018169474359, 0.0 ], [ -109.584939291832995, 23.601835574198201, 0.0 ], [ -109.584942951822001, 23.601853914563598, 0.0 ], [ -109.584951043491003, 23.601871006713399, 0.0 ], [ -109.584963142492001, 23.601885954288299, 0.0 ], [ -109.584978614321997, 23.601897973396099, 0.0 ], [ -109.584996647595005, 23.601906433721201, 0.0 ], [ -109.585254905126007, 23.6019688073929, 0.0 ], [ -109.585272244115998, 23.601967823709799, 0.0 ], [ -109.585288841069996, 23.601963095856402, 0.0 ], [ -109.585303757830999, 23.601954891078499, 0.0 ], [ -109.585316151214997, 23.6019436731581, 0.0 ], [ -109.585325320679004, 23.601930076197299, 0.0 ], [ -109.586017696395004, 23.599871030491201, 0.0 ], [ -109.586010289884996, 23.599868814537501, 0.0 ], [ -109.586002543467998, 23.5998680822136, 0.0 ], [ -109.585994803009001, 23.599868866216699, 0.0 ], [ -109.585987414106995, 23.599871131542301, 0.0 ], [ -109.585919581702001, 23.599898462505902, 0.0 ], [ -109.585577745044006, 23.599925989926099, 0.0 ], [ -109.585575238348994, 23.5999258644393, 0.0 ], [ -109.585588026276, 23.599843066996101, 0.0 ], [ -109.585590205268005, 23.599836872289298, 0.0 ], [ -109.585593868163997, 23.599831303413701, 0.0 ], [ -109.585598819607995, 23.5998266573772, 0.0 ], [ -109.585604795524006, 23.599823181969601, 0.0 ], [ -109.585611477192003, 23.599821062546699, 0.0 ], [ -109.585618508257994, 23.599820412144901, 0.0 ], [ -109.585804026885995, 23.5998097302923, 0.0 ], [ -109.585984175655994, 23.599767520394199, 0.0 ], [ -109.585987979183997, 23.599766123061499, 0.0 ], [ -109.586028863427998, 23.599755660015798, 0.0 ], [ -109.586071233154996, 23.599753551492601, 0.0 ], [ -109.586113102311998, 23.5997598963278, 0.0 ], [ -109.586152508308999, 23.599774397111801, 0.0 ], [ -109.586187604013006, 23.599796374130001, 0.0 ], [ -109.586656187383994, 23.6001640267915, 0.0 ], [ -109.586554873732993, 23.600268670994801, 0.0 ], [ -109.586645461930999, 23.600339746555701, 0.0 ], [ -109.586703608746006, 23.600396784421498, 0.0 ], [ -109.586739201447998, 23.600424596594301, 0.0 ], [ -109.586780819430999, 23.600444049984301, 0.0 ], [ -109.586826196557993, 23.600454085335201, 0.0 ], [ -109.586854860543994, 23.600459538509401, 0.0 ], [ -109.586881163737999, 23.600471368154899, 0.0 ], [ -109.586903464943006, 23.600488836157002, 0.0 ], [ -109.586920372663002, 23.6005108525931, 0.0 ], [ -109.586930831933003, 23.600536043739009, 0.0 ], [ -109.586988779169999, 23.600681254145499, 0.0 ], [ -109.587017093816996, 23.6007268538293, 0.0 ], [ -109.587053595059999, 23.6007672110538, 0.0 ], [ -109.587106634340003, 23.6008056800666, 0.0 ], [ -109.587168166880005, 23.6008312433136, 0.0 ], [ -109.58720414858, 23.600845429386901, 0.0 ], [ -109.587236249401997, 23.600866060221701, 0.0 ], [ -109.587261187186996, 23.600890755250202, 0.0 ], [ -109.587279676804002, 23.600919869765399, 0.0 ], [ -109.587290827184006, 23.600952000661099, 0.0 ], [ -109.587289323261999, 23.601000895530898, 0.0 ], [ -109.587288764346994, 23.601006038290201, 0.0 ], [ -109.587287395096993, 23.601009909912602, 0.0 ], [ -109.587283740789005, 23.601015627989199, 0.0 ], [ -109.587276456327004, 23.601024824822399, 0.0 ], [ -109.587271904714001, 23.601030677542902, 0.0 ], [ -109.587268815667997, 23.601035230107499, 0.0 ], [ -109.587266281525999, 23.601039584121299, 0.0 ], [ -109.587263566363006, 23.6010453616279, 0.0 ], [ -109.587261158841997, 23.6010528985056, 0.0 ], [ -109.587258489784006, 23.6010646821845, 0.0 ], [ -109.587256630995, 23.6010727786038, 0.0 ], [ -109.587255257055006, 23.6010771941184, 0.0 ], [ -109.587252533897995, 23.6010834443187, 0.0 ], [ -109.587248871278007, 23.601088571389699, 0.0 ], [ -109.587245551341994, 23.6010918835672, 0.0 ], [ -109.587242636040003, 23.6010941276529, 0.0 ], [ -109.587239752512005, 23.601095881041399, 0.0 ], [ -109.587236698607001, 23.6010974421926, 0.0 ], [ -109.587234132570998, 23.6010985628469, 0.0 ], [ -109.587230515173999, 23.601099939799401, 0.0 ], [ -109.587225319922993, 23.601101640312201, 0.0 ], [ -109.587213346612998, 23.601104582116498, 0.0 ], [ -109.587196886607003, 23.601107514874101, 0.0 ], [ -109.587171354614995, 23.601110658301401, 0.0 ], [ -109.587149337667995, 23.601112989122399, 0.0 ], [ -109.587120709735004, 23.601116575955999, 0.0 ], [ -109.587094752276002, 23.601120651303201, 0.0 ], [ -109.587066386936002, 23.6011262539905, 0.0 ], [ -109.587026458333995, 23.6011367918471, 0.0 ], [ -109.587005866656, 23.601143306672899, 0.0 ], [ -109.586976062456003, 23.6011543108363, 0.0 ], [ -109.586948049445994, 23.601165926116199, 0.0 ], [ -109.586913295239995, 23.601182320556799, 0.0 ], [ -109.585862167236996, 23.6023200313101, 0.0 ], [ -109.585700523523997, 23.602193205206198, 0.0 ], [ -109.585188177622996, 23.602747744126699, 0.0 ], [ -109.585942811593995, 23.603339590475901, 0.0 ], [ -109.586668362424007, 23.602554284007301, 0.0 ], [ -109.586669944901999, 23.602552629271401, 0.0 ], [ -109.586671587763007, 23.6025510252883, 0.0 ], [ -109.586673289090996, 23.602549473928001, 0.0 ], [ -109.586675046902002, 23.6025479769994, 0.0 ], [ -109.586676859147005, 23.6025465362478, 0.0 ], [ -109.586678723713007, 23.602545153353201, 0.0 ], [ -109.586680638426003, 23.6025438299279, 0.0 ], [ -109.586682601052999, 23.602542567514899, 0.0 ], [ -109.586684609306005, 23.602541367586099, 0.0 ], [ -109.586686660843, 23.6025402315408, 0.0 ], [ -109.586688753272995, 23.602539160703309, 0.0 ], [ -109.586690884155999, 23.602538156322201, 0.0 ], [ -109.586693051007003, 23.602537219568699, 0.0 ], [ -109.5866952513, 23.602536351534901, 0.0 ], [ -109.586697482469006, 23.602535553232901, 0.0 ], [ -109.586699741914003, 23.602534825593601, 0.0 ], [ -109.586702026997997, 23.602534169465201, 0.0 ], [ -109.586704335058997, 23.6025335856128, 0.0 ], [ -109.586706663406005, 23.602533074717201, 0.0 ], [ -109.586709009322007, 23.602532637374001, 0.0 ], [ -109.586711370073999, 23.6025322740931, 0.0 ], [ -109.586713742908998, 23.602531985298199, 0.0 ], [ -109.586716125058999, 23.602531771325999, 0.0 ], [ -109.586718513747996, 23.602531632425801, 0.0 ], [ -109.586720906191005, 23.602531568759801, 0.0 ], [ -109.586723299596997, 23.602531580402101, 0.0 ], [ -109.586725691176994, 23.6025316673391, 0.0 ], [ -109.586728078142002, 23.602531829469399, 0.0 ], [ -109.586730457708001, 23.602532066604098, 0.0 ], [ -109.586732827101997, 23.602532378466702, 0.0 ], [ -109.586735183561004, 23.6025327646935, 0.0 ], [ -109.586737524336996, 23.6025332248342, 0.0 ], [ -109.586739846700993, 23.602533758352301, 0.0 ], [ -109.586742147945003, 23.6025343646258, 0.0 ], [ -109.586744425386001, 23.6025350429477, 0.0 ], [ -109.586746676369003, 23.602535792527199, 0.0 ], [ -109.586748898268993, 23.602536612490301, 0.0 ], [ -109.586751088495006, 23.602537501880899, 0.0 ], [ -109.586753244495, 23.602538459662199, 0.0 ], [ -109.586755363752999, 23.602539484717202, 0.0 ], [ -109.586757443799002, 23.602540575850998, 0.0 ], [ -109.586759482207995, 23.602541731791099, 0.0 ], [ -109.586761476603996, 23.602542951189999, 0.0 ], [ -109.586763424658997, 23.602544232625799, 0.0 ], [ -109.586765324105002, 23.602545574604399, 0.0 ], [ -109.586767172725004, 23.6025469755612, 0.0 ], [ -109.587005366919996, 23.602733860381999, 0.0 ], [ -109.587014339456005, 23.602718401257398, 0.0 ], [ -109.587061266774001, 23.602755219865699, 0.0 ], [ -109.587052294241005, 23.6027706789931, 0.0 ], [ -109.587559464943993, 23.603168596864499, 0.0 ], [ -109.587215176442996, 23.603541245038102, 0.0 ], [ -109.587163893500005, 23.6035967519941, 0.0 ], [ -109.587542377831994, 23.6038937028442, 0.0 ], [ -109.588722700299002, 23.602616118135899, 0.0 ], [ -109.588994804701002, 23.6028303849026, 0.0 ], [ -109.588176982806999, 23.6037155899024, 0.0 ], [ -109.588121595786006, 23.6037961714655, 0.0 ], [ -109.588088863164998, 23.603886662628302, 0.0 ], [ -109.588080706208999, 23.603981752077299, 0.0 ], [ -109.588097603736003, 23.604075858594999, 0.0 ], [ -109.588138564008005, 23.6041634586445, 0.0 ], [ -109.588201182920997, 23.6042394105726, 0.0 ], [ -109.588281785109004, 23.604299256399401, 0.0 ], [ -109.588375639660995, 23.604339483482299, 0.0 ], [ -109.588477237804, 23.604357730694399, 0.0 ], [ -109.588580616239994, 23.604352927013998, 0.0 ], [ -109.588744130308996, 23.6043417195398, 0.0 ], [ -109.588906899118996, 23.604359943312499, 0.0 ], [ -109.589062743802003, 23.6044069065446, 0.0 ], [ -109.589108479564004, 23.604434903126698, 0.0 ], [ -109.589146069896998, 23.604471783746199, 0.0 ], [ -109.589173528638995, 23.604515599749099, 0.0 ], [ -109.589189404947007, 23.604564036035899, 0.0 ], [ -109.589192859950998, 23.6046145333829, 0.0 ], [ -109.589183711085994, 23.604664423663401, 0.0 ], [ -109.589162441735994, 23.604711070823299, 0.0 ], [ -109.589115480947996, 23.604787582929799, 0.0 ], [ -109.589086849856997, 23.6048401939372, 0.0 ], [ -109.589064261478001, 23.604895246149798, 0.0 ], [ -109.588765559075995, 23.604863959694701, 0.0 ], [ -109.588462275886002, 23.6048655118264, 0.0 ], [ -109.587482513544003, 23.604883475727501, 0.0 ], [ -109.586996231640001, 23.604893407512701, 0.0 ], [ -109.586772804679995, 23.605034908703299, 0.0 ], [ -109.586662440647004, 23.605259210197399, 0.0 ], [ -109.586633532671996, 23.6052596957433, 0.0 ], [ -109.586640092975998, 23.6056674711953, 0.0 ], [ -109.586629209544, 23.605722079344801, 0.0 ], [ -109.586607973979994, 23.605774037969301, 0.0 ], [ -109.586577061533006, 23.605821694857301, 0.0 ], [ -109.586549579446995, 23.6058601125489, 0.0 ], [ -109.586532915663, 23.605903488477601, 0.0 ], [ -109.586528045871006, 23.605949282947009, 0.0 ], [ -109.586535255211999, 23.605994814650199, 0.0 ], [ -109.586554121584996, 23.606037417663199, 0.0 ], [ -109.586583540356997, 23.6060745975368, 0.0 ], [ -109.586614293877005, 23.606107859430001, 0.0 ], [ -109.586652372711995, 23.606133901428599, 0.0 ], [ -109.586695828660993, 23.606151391161799, 0.0 ], [ -109.586805496439993, 23.606175456146801, 0.0 ], [ -109.586877579394994, 23.606205585859399, 0.0 ], [ -109.586941303901, 23.606248849349502, 0.0 ], [ -109.586993893138001, 23.606303361403398, 0.0 ], [ -109.587033055503994, 23.606366746646099, 0.0 ], [ -109.587074748202994, 23.606479060879899, 0.0 ], [ -109.587086818947995, 23.606597242323101, 0.0 ], [ -109.587093212184001, 23.606643030620599, 0.0 ], [ -109.587111791211996, 23.606685904407399, 0.0 ], [ -109.587141382780999, 23.606723156207799, 0.0 ], [ -109.587180118191995, 23.606752433572002, 0.0 ], [ -109.586986350206004, 23.6070366261897, 0.0 ], [ -109.586613480281002, 23.607497581393599, 0.0 ], [ -109.587012389156001, 23.607771586745301, 0.0 ], [ -109.587048082961999, 23.607979807752699, 0.0 ], [ -109.586542956352005, 23.608584972829298, 0.0 ], [ -109.586539072433993, 23.608582220006799, 0.0 ], [ -109.586467199661996, 23.6086683263004, 0.0 ], [ -109.586449661488999, 23.60868933767, 0.0 ], [ -109.586049273818006, 23.608492167487999, 0.0 ], [ -109.585665228962995, 23.609142372691899, 0.0 ], [ -109.58553503201, 23.609073249906601, 0.0 ], [ -109.585476473225995, 23.6090421127805, 0.0 ], [ -109.585420146684001, 23.609010073423601, 0.0 ], [ -109.585349764021004, 23.6089693819434, 0.0 ], [ -109.585268629734998, 23.608927823698899, 0.0 ], [ -109.585204102475004, 23.608884910785299, 0.0 ], [ -109.585147000667007, 23.6088546081786, 0.0 ], [ -109.585097670943, 23.608819541461799, 0.0 ], [ -109.585015567156006, 23.608749338391899, 0.0 ], [ -109.584922783457003, 23.608656915617601, 0.0 ], [ -109.584794611205993, 23.608554841156309, 0.0 ], [ -109.584639812502004, 23.6084404768526, 0.0 ], [ -109.584567147825993, 23.608401377656801, 0.0 ], [ -109.584543820568001, 23.608370306411501, 0.0 ], [ -109.584492857539004, 23.6083055704872, 0.0 ], [ -109.584439035057997, 23.608245464173301, 0.0 ] ] } }
]
}
